{
"type": "FeatureCollection",
"name": "canada-provinces-locator",
"crs": { "type": "name", "properties": { "name": "urn:ogc:def:crs:OGC:1.3:CRS84" } },
"features": [
{ "type": "Feature", "properties": { "name": "Alberta", "is_manitoba": false }, "geometry": { "type": "Polygon", "coordinates": [ [ [ -109.999432, 48.993083 ], [ -114.062517, 48.993083 ], [ -114.734023, 49.587201 ], [ -114.651961, 50.019612 ], [ -114.992795, 50.545033 ], [ -116.674033, 51.790685 ], [ -116.912783, 51.713847 ], [ -117.757615, 52.394637 ], [ -118.221024, 52.3861 ], [ -118.803673, 53.153397 ], [ -119.89384, 53.51555 ], [ -119.73483, 53.633653 ], [ -120.001018, 53.843788 ], [ -120.0, 60.001087 ], [ -110.000025, 60.001087 ], [ -109.999432, 48.993083 ] ] ] } },
{ "type": "Feature", "properties": { "name": "British Columbia", "is_manitoba": false }, "geometry": { "type": "MultiPolygon", "coordinates": [ [ [ [ -120.0, 60.001087 ], [ -120.001018, 53.843788 ], [ -119.73483, 53.633653 ], [ -119.89384, 53.51555 ], [ -118.803673, 53.153397 ], [ -118.221024, 52.3861 ], [ -117.757615, 52.394637 ], [ -116.912783, 51.713847 ], [ -116.674033, 51.790685 ], [ -114.992795, 50.545033 ], [ -114.651961, 50.019612 ], [ -114.734023, 49.587201 ], [ -114.062517, 48.993083 ], [ -123.086435, 48.993028 ], [ -123.229422, 49.260512 ], [ -122.947633, 49.293273 ], [ -122.879112, 49.398951 ], [ -123.276762, 49.343964 ], [ -123.187487, 49.680332 ], [ -123.530568, 49.397292 ], [ -124.0286, 49.602868 ], [ -123.992609, 49.736165 ], [ -123.81719, 49.586586 ], [ -123.582478, 49.681255 ], [ -123.874396, 49.736813 ], [ -123.825457, 50.14423 ], [ -124.281269, 49.772101 ], [ -124.782378, 50.020096 ], [ -125.056701, 50.418625 ], [ -124.862655, 50.637297 ], [ -124.859864, 50.872404 ], [ -125.058772, 50.513865 ], [ -126.094338, 50.497594 ], [ -126.447471, 50.58777 ], [ -125.90412, 50.704917 ], [ -126.514339, 50.679385 ], [ -126.517339, 51.056832 ], [ -127.057586, 50.867537 ], [ -127.708119, 51.151193 ], [ -127.419657, 51.60806 ], [ -126.691434, 51.70341 ], [ -127.338732, 51.707387 ], [ -127.668689, 51.477586 ], [ -127.850535, 51.673176 ], [ -127.795345, 52.191027 ], [ -127.437927, 52.35613 ], [ -126.713994, 52.060696 ], [ -127.193987, 52.457676 ], [ -126.951315, 52.721227 ], [ -127.008235, 52.84256 ], [ -127.834308, 52.251002 ], [ -128.102254, 51.788411 ], [ -128.357615, 52.158881 ], [ -127.940222, 52.54516 ], [ -128.271542, 52.363007 ], [ -128.053266, 52.910676 ], [ -128.365025, 52.825773 ], [ -128.524684, 53.140685 ], [ -129.17157, 53.533578 ], [ -128.854587, 53.704548 ], [ -128.905613, 53.559319 ], [ -127.927846, 53.274708 ], [ -128.675553, 53.554617 ], [ -128.763658, 53.7469 ], [ -128.532121, 53.858104 ], [ -128.959358, 53.84147 ], [ -129.563716, 53.251483 ], [ -130.335242, 53.723906 ], [ -130.043296, 54.133542 ], [ -129.626036, 54.230255 ], [ -130.084248, 54.181398 ], [ -130.430251, 54.421021 ], [ -129.560667, 55.462536 ], [ -129.79517, 55.559556 ], [ -130.091796, 55.107744 ], [ -129.985135, 55.358847 ], [ -130.09296, 55.631846 ], [ -130.085127, 55.751685 ], [ -130.020302, 55.880775 ], [ -130.014073, 55.950538 ], [ -130.055958, 56.065235 ], [ -131.824274, 56.589986 ], [ -133.401103, 58.410882 ], [ -134.94377, 59.288272 ], [ -135.05103, 59.578663 ], [ -135.475937, 59.793281 ], [ -136.321829, 59.604832 ], [ -136.578739, 59.152251 ], [ -137.438579, 58.903125 ], [ -137.593299, 59.226254 ], [ -139.056519, 60.001582 ], [ -120.0, 60.001087 ] ] ], [ [ [ -130.21409, 55.025895 ], [ -130.036551, 55.297917 ], [ -130.146518, 55.654489 ], [ -130.111977, 55.779799 ], [ -130.025081, 55.888212 ], [ -130.122519, 55.691019 ], [ -130.017874, 55.284942 ], [ -130.21409, 55.025895 ] ] ], [ [ [ -130.312533, 54.945948 ], [ -130.34943, 54.814562 ], [ -130.575331, 54.769683 ], [ -130.312533, 54.945948 ] ] ], [ [ [ -130.763357, 54.576719 ], [ -130.906811, 54.631805 ], [ -130.758007, 54.613776 ], [ -130.763357, 54.576719 ] ] ], [ [ [ -133.097941, 54.005595 ], [ -132.166086, 53.955212 ], [ -132.534644, 53.651714 ], [ -131.667642, 54.141342 ], [ -132.011316, 53.265171 ], [ -132.747526, 53.31049 ], [ -132.425012, 53.336956 ], [ -132.845013, 53.507695 ], [ -133.097941, 54.005595 ] ] ], [ [ [ -130.236282, 53.958563 ], [ -130.38423, 53.843953 ], [ -130.707261, 53.921495 ], [ -130.448, 54.089003 ], [ -130.236282, 53.958563 ] ] ], [ [ [ -129.944749, 53.436371 ], [ -129.934389, 53.176655 ], [ -130.51756, 53.544224 ], [ -129.944749, 53.436371 ] ] ], [ [ [ -129.177019, 53.259151 ], [ -129.323884, 53.142136 ], [ -129.238202, 53.330079 ], [ -129.177019, 53.259151 ] ] ], [ [ [ -128.55243, 52.939767 ], [ -128.509929, 52.518607 ], [ -128.678937, 52.289651 ], [ -128.746322, 52.763393 ], [ -128.899828, 52.673843 ], [ -129.184303, 52.990667 ], [ -129.03323, 53.279948 ], [ -128.55243, 52.939767 ] ] ], [ [ [ -131.753736, 53.195562 ], [ -131.634672, 52.922167 ], [ -131.971782, 52.879826 ], [ -131.455226, 52.701694 ], [ -131.590594, 52.578207 ], [ -131.221547, 52.153641 ], [ -132.54679, 53.137477 ], [ -131.753736, 53.195562 ] ] ], [ [ [ -129.450749, 53.174688 ], [ -129.40972, 53.023736 ], [ -129.514722, 53.17939 ], [ -129.450749, 53.174688 ] ] ], [ [ [ -128.93688, 52.510026 ], [ -129.151025, 52.605322 ], [ -129.263525, 52.800779 ], [ -128.994009, 52.661692 ], [ -128.93688, 52.510026 ] ] ], [ [ [ -128.323766, 52.458973 ], [ -128.439803, 52.696365 ], [ -128.247284, 52.784377 ], [ -128.323766, 52.458973 ] ] ], [ [ [ -131.010654, 52.09527 ], [ -131.103439, 52.013884 ], [ -131.098116, 52.150619 ], [ -131.010654, 52.09527 ] ] ], [ [ [ -127.924643, 51.473862 ], [ -128.091789, 51.511116 ], [ -128.142403, 51.646589 ], [ -127.998691, 51.703816 ], [ -127.924643, 51.473862 ] ] ], [ [ [ -127.918079, 50.860539 ], [ -125.482075, 50.31677 ], [ -124.830619, 49.530105 ], [ -123.995811, 49.224026 ], [ -123.283788, 48.455181 ], [ -123.573151, 48.322785 ], [ -125.017221, 48.711492 ], [ -125.135687, 48.822399 ], [ -124.849658, 49.028272 ], [ -124.812634, 49.212655 ], [ -125.543131, 48.952829 ], [ -125.935409, 49.401477 ], [ -126.548551, 49.418946 ], [ -126.134081, 49.672312 ], [ -126.90331, 49.944136 ], [ -127.114303, 49.879745 ], [ -127.249797, 50.138001 ], [ -127.863894, 50.12774 ], [ -127.905884, 50.44519 ], [ -127.486503, 50.404628 ], [ -127.465937, 50.583112 ], [ -128.058353, 50.498473 ], [ -128.349886, 50.696601 ], [ -127.918079, 50.860539 ] ] ], [ [ [ -125.184137, 50.097121 ], [ -125.358468, 50.311508 ], [ -125.301158, 50.414076 ], [ -125.074015, 50.220651 ], [ -125.184137, 50.097121 ] ] ], [ [ [ -124.907462, 50.08397 ], [ -125.025956, 50.134101 ], [ -124.990816, 50.217146 ], [ -124.907462, 50.08397 ] ] ], [ [ [ -126.641231, 49.605812 ], [ -126.938549, 49.718466 ], [ -126.925838, 49.837734 ], [ -126.738125, 49.843677 ], [ -126.641231, 49.605812 ] ] ], [ [ [ -124.153685, 49.53116 ], [ -124.362326, 49.58819 ], [ -124.649855, 49.758357 ], [ -124.421493, 49.727771 ], [ -124.153685, 49.53116 ] ] ], [ [ [ -126.208546, 49.379779 ], [ -126.064032, 49.26361 ], [ -126.229629, 49.295646 ], [ -126.208546, 49.379779 ] ] ], [ [ [ -123.377918, 48.908224 ], [ -123.541032, 48.945951 ], [ -123.689238, 49.095091 ], [ -123.377918, 48.908224 ] ] ], [ [ [ -123.467858, 48.86741 ], [ -123.517522, 48.750153 ], [ -123.582346, 48.925802 ], [ -123.467858, 48.86741 ] ] ] ] } },
{ "type": "Feature", "properties": { "name": "Manitoba", "is_manitoba": true }, "geometry": { "type": "Polygon", "coordinates": [ [ [ -88.948495, 56.851307 ], [ -95.153826, 52.822357 ], [ -95.162044, 48.991764 ], [ -101.367271, 48.993138 ], [ -102.001105, 55.817526 ], [ -102.001649, 60.001087 ], [ -94.771886, 60.001768 ], [ -94.957352, 59.068853 ], [ -94.287054, 58.716005 ], [ -94.332219, 58.297371 ], [ -94.123188, 58.736704 ], [ -93.178753, 58.725618 ], [ -92.432804, 57.320324 ], [ -92.798154, 56.921949 ], [ -90.897448, 57.256922 ], [ -88.948495, 56.851307 ] ] ] } },
{ "type": "Feature", "properties": { "name": "New Brunswick", "is_manitoba": false }, "geometry": { "type": "MultiPolygon", "coordinates": [ [ [ [ -63.831913, 46.107161 ], [ -64.482238, 45.806355 ], [ -64.632685, 45.946651 ], [ -64.778517, 45.638429 ], [ -65.884478, 45.222904 ], [ -66.026586, 45.417593 ], [ -66.439837, 45.095902 ], [ -67.315294, 45.153833 ], [ -67.43265, 45.603108 ], [ -67.802241, 45.727517 ], [ -67.806789, 47.082813 ], [ -68.235497, 47.345946 ], [ -69.05366, 47.294585 ], [ -68.429637, 47.528188 ], [ -68.377913, 47.929375 ], [ -68.113516, 47.998567 ], [ -67.364853, 47.8548 ], [ -66.359615, 48.060662 ], [ -65.60726, 47.67001 ], [ -65.001683, 47.846846 ], [ -64.703228, 47.724843 ], [ -65.318902, 47.101204 ], [ -64.831417, 47.060796 ], [ -64.647857, 46.355979 ], [ -63.831913, 46.107161 ] ] ], [ [ [ -64.476086, 47.958885 ], [ -64.591299, 47.907205 ], [ -64.51957, 48.005082 ], [ -64.476086, 47.958885 ] ] ], [ [ [ -64.663282, 47.863018 ], [ -64.533907, 47.813777 ], [ -64.684573, 47.753594 ], [ -64.663282, 47.863018 ] ] ], [ [ [ -66.762483, 44.681773 ], [ -66.897044, 44.628907 ], [ -66.802166, 44.80538 ], [ -66.762483, 44.681773 ] ] ] ] } },
{ "type": "Feature", "properties": { "name": "Newfoundland and Labrador", "is_manitoba": false }, "geometry": { "type": "MultiPolygon", "coordinates": [ [ [ [ -57.100128, 51.443342 ], [ -57.101029, 52.001117 ], [ -63.756899, 52.010522 ], [ -64.059418, 52.48512 ], [ -63.409687, 52.688719 ], [ -63.722544, 53.109188 ], [ -64.178477, 52.815325 ], [ -64.130676, 52.186688 ], [ -64.290516, 51.728777 ], [ -64.598012, 51.600369 ], [ -65.137133, 52.154695 ], [ -66.407438, 52.183688 ], [ -66.428038, 53.010816 ], [ -66.688348, 52.726885 ], [ -67.068024, 52.754922 ], [ -66.944439, 53.355139 ], [ -67.47353, 53.613317 ], [ -67.76147, 54.060735 ], [ -67.511323, 54.236176 ], [ -67.601421, 54.552791 ], [ -67.15018, 54.616666 ], [ -67.40815, 55.071785 ], [ -66.724449, 54.747974 ], [ -66.773986, 55.32825 ], [ -65.675804, 54.744931 ], [ -63.698825, 54.615194 ], [ -63.534019, 55.140351 ], [ -63.111825, 55.33983 ], [ -63.700572, 55.860911 ], [ -63.578305, 56.025574 ], [ -64.12148, 56.299409 ], [ -63.601255, 57.723061 ], [ -64.400379, 58.121414 ], [ -63.848008, 58.459738 ], [ -64.070811, 58.641694 ], [ -63.496709, 58.753447 ], [ -64.848313, 58.949223 ], [ -64.324364, 59.019964 ], [ -64.519493, 59.225793 ], [ -64.385295, 59.514766 ], [ -64.818024, 59.540244 ], [ -64.661469, 59.921513 ], [ -64.887271, 60.035409 ], [ -64.622303, 60.141317 ], [ -64.846688, 60.250763 ], [ -64.436348, 60.228109 ], [ -64.768443, 60.012096 ], [ -64.283517, 60.064083 ], [ -64.226312, 59.741184 ], [ -63.750186, 59.512591 ], [ -63.945446, 59.380195 ], [ -63.415147, 59.194372 ], [ -63.94103, 59.027402 ], [ -63.248407, 59.068337 ], [ -63.282124, 58.867364 ], [ -62.92608, 58.765048 ], [ -63.537051, 58.329924 ], [ -62.607882, 58.496378 ], [ -63.261503, 58.014671 ], [ -62.486253, 58.154077 ], [ -61.899056, 57.861324 ], [ -61.96794, 57.611934 ], [ -62.495558, 57.489206 ], [ -61.921127, 57.420783 ], [ -61.977454, 57.247924 ], [ -61.333743, 57.010576 ], [ -61.371624, 56.680832 ], [ -62.497261, 56.801704 ], [ -61.425292, 56.360646 ], [ -61.713079, 56.230931 ], [ -61.364703, 56.216022 ], [ -61.449528, 55.995703 ], [ -60.341018, 55.784655 ], [ -60.192362, 55.480905 ], [ -60.617127, 55.060206 ], [ -59.758798, 55.309595 ], [ -59.437865, 55.175914 ], [ -59.83779, 54.813936 ], [ -59.259579, 55.199941 ], [ -58.780158, 54.838359 ], [ -57.962456, 54.875745 ], [ -57.404505, 54.590881 ], [ -60.395401, 53.653318 ], [ -60.100308, 53.486963 ], [ -60.329461, 53.266105 ], [ -57.928267, 54.103571 ], [ -58.360777, 54.154471 ], [ -58.192104, 54.228167 ], [ -57.416073, 54.162766 ], [ -57.134977, 53.791856 ], [ -57.52408, 53.611406 ], [ -57.331764, 53.469089 ], [ -56.524291, 53.766434 ], [ -55.966087, 53.471132 ], [ -55.802819, 52.64317 ], [ -56.3249, 52.544523 ], [ -55.746459, 52.474573 ], [ -56.011713, 52.394472 ], [ -55.69523, 52.137798 ], [ -57.100128, 51.443342 ] ] ], [ [ [ -61.848343, 57.579327 ], [ -61.637471, 57.416081 ], [ -62.011226, 57.548477 ], [ -61.848343, 57.579327 ] ] ], [ [ [ -61.086891, 56.140832 ], [ -60.98273, 56.015137 ], [ -61.195843, 56.063917 ], [ -61.086891, 56.140832 ] ] ], [ [ [ -55.293569, 51.929959 ], [ -55.399818, 51.938484 ], [ -55.274091, 51.995174 ], [ -55.293569, 51.929959 ] ] ], [ [ [ -55.458727, 51.53655 ], [ -56.031093, 51.328392 ], [ -55.800028, 51.033321 ], [ -56.73235, 50.007692 ], [ -56.822185, 49.613459 ], [ -56.179408, 50.114974 ], [ -56.161292, 49.940159 ], [ -55.502914, 49.983149 ], [ -56.140187, 49.619117 ], [ -55.869813, 49.670148 ], [ -56.087321, 49.451971 ], [ -55.229541, 49.508144 ], [ -55.353181, 49.079435 ], [ -54.502202, 49.527337 ], [ -54.448248, 49.32944 ], [ -53.619462, 49.32164 ], [ -53.573418, 49.141189 ], [ -54.161285, 48.787693 ], [ -53.706331, 48.655528 ], [ -54.114473, 48.393581 ], [ -53.027584, 48.634709 ], [ -53.869576, 48.019683 ], [ -53.638215, 48.01464 ], [ -53.863655, 47.787037 ], [ -53.67235, 47.648257 ], [ -52.865997, 48.112979 ], [ -53.169824, 47.512093 ], [ -52.782402, 47.769436 ], [ -52.653654, 47.549402 ], [ -53.069783, 46.68123 ], [ -53.589799, 46.638888 ], [ -53.597368, 47.146006 ], [ -54.173744, 46.88039 ], [ -53.849526, 47.440308 ], [ -54.191827, 47.859821 ], [ -54.48814, 47.403877 ], [ -55.788526, 46.867217 ], [ -55.919219, 47.016873 ], [ -54.784606, 47.664737 ], [ -55.576138, 47.465214 ], [ -56.127267, 47.502842 ], [ -55.857926, 47.819204 ], [ -56.774098, 47.565003 ], [ -59.259733, 47.634195 ], [ -59.340867, 47.93366 ], [ -58.330235, 48.522099 ], [ -59.1677, 48.558486 ], [ -58.84178, 48.746429 ], [ -58.716459, 48.598069 ], [ -58.403667, 49.084346 ], [ -57.990515, 48.987941 ], [ -58.213395, 49.386646 ], [ -57.791322, 49.490005 ], [ -57.926146, 49.700844 ], [ -57.035913, 51.010843 ], [ -56.025567, 51.568377 ], [ -55.458727, 51.53655 ] ] ], [ [ [ -55.472735, 50.775922 ], [ -55.63386, 50.740184 ], [ -55.469296, 50.796379 ], [ -55.472735, 50.775922 ] ] ], [ [ [ -54.277664, 49.71149 ], [ -53.980648, 49.661985 ], [ -54.286134, 49.595375 ], [ -54.277664, 49.71149 ] ] ], [ [ [ -54.559166, 49.631498 ], [ -54.786495, 49.496158 ], [ -54.863576, 49.576094 ], [ -54.559166, 49.631498 ] ] ], [ [ [ -54.147542, 47.573122 ], [ -54.32596, 47.408118 ], [ -54.128162, 47.646807 ], [ -54.147542, 47.573122 ] ] ] ] } },
{ "type": "Feature", "properties": { "name": "Nova Scotia", "is_manitoba": false }, "geometry": { "type": "MultiPolygon", "coordinates": [ [ [ [ -64.91288, 45.374801 ], [ -64.030942, 46.012668 ], [ -62.483056, 45.621818 ], [ -61.955514, 45.868153 ], [ -61.350508, 45.573676 ], [ -61.460998, 45.366693 ], [ -61.03152, 45.291756 ], [ -63.604024, 44.683212 ], [ -63.609759, 44.479976 ], [ -64.286066, 44.550332 ], [ -64.275706, 44.334088 ], [ -65.344302, 43.549621 ], [ -66.125727, 43.813842 ], [ -66.193084, 44.143871 ], [ -65.868021, 44.5688 ], [ -66.146392, 44.435943 ], [ -66.021697, 44.561703 ], [ -64.448158, 45.337437 ], [ -64.135509, 45.023063 ], [ -64.09319, 45.217082 ], [ -63.368016, 45.364782 ], [ -64.91288, 45.374801 ] ] ], [ [ [ -61.105183, 45.944739 ], [ -60.865242, 45.983499 ], [ -61.05903, 45.703358 ], [ -60.73791, 45.751424 ], [ -60.297941, 46.311254 ], [ -59.828023, 45.965152 ], [ -60.672959, 45.590814 ], [ -61.449781, 45.716223 ], [ -61.408648, 46.170365 ], [ -60.48907, 47.00971 ], [ -60.331768, 46.767846 ], [ -60.494541, 46.270275 ], [ -61.105183, 45.944739 ] ] ], [ [ [ -60.91245, 45.567293 ], [ -61.00289, 45.48172 ], [ -61.08175, 45.55779 ], [ -60.91245, 45.567293 ] ] ], [ [ [ -66.273779, 44.292307 ], [ -66.324107, 44.257294 ], [ -66.210377, 44.392019 ], [ -66.273779, 44.292307 ] ] ], [ [ [ -59.727124, 44.00284 ], [ -60.037752, 43.906621 ], [ -60.117458, 43.953368 ], [ -59.727124, 44.00284 ] ] ] ] } },
{ "type": "Feature", "properties": { "name": "Northwest Territories", "is_manitoba": false }, "geometry": { "type": "MultiPolygon", "coordinates": [ [ [ [ -102.001649, 60.001087 ], [ -123.819157, 60.001087 ], [ -124.599444, 60.662135 ], [ -124.582597, 60.952822 ], [ -126.859277, 60.769416 ], [ -127.166598, 61.464521 ], [ -128.560829, 62.116911 ], [ -129.254714, 62.152771 ], [ -129.18945, 62.490293 ], [ -129.718667, 62.831671 ], [ -129.611775, 63.058681 ], [ -130.133604, 63.276452 ], [ -129.844938, 63.485786 ], [ -130.302607, 63.703711 ], [ -130.117916, 63.79337 ], [ -130.757726, 63.993047 ], [ -131.106718, 64.400903 ], [ -131.796808, 64.387906 ], [ -131.729006, 64.533816 ], [ -132.588104, 64.794082 ], [ -132.35259, 65.057248 ], [ -132.773234, 65.20341 ], [ -132.194689, 65.597655 ], [ -132.554848, 65.857009 ], [ -132.342746, 65.978968 ], [ -133.621632, 65.974629 ], [ -133.583157, 66.285102 ], [ -133.800121, 66.325587 ], [ -133.635194, 66.565649 ], [ -134.055581, 67.004487 ], [ -136.194553, 67.036216 ], [ -136.169251, 67.514231 ], [ -136.445437, 67.746592 ], [ -136.443756, 68.895124 ], [ -135.231222, 68.694283 ], [ -135.910199, 69.111489 ], [ -135.140843, 69.467798 ], [ -134.456823, 69.47762 ], [ -134.408945, 69.68179 ], [ -133.879805, 69.507722 ], [ -134.174337, 69.252828 ], [ -130.66548, 70.127032 ], [ -129.538442, 70.105181 ], [ -131.937779, 69.534727 ], [ -133.418313, 68.844269 ], [ -132.706031, 68.814869 ], [ -132.532656, 68.875646 ], [ -132.718923, 69.079189 ], [ -131.788387, 69.43196 ], [ -131.063415, 69.450692 ], [ -130.970658, 69.209059 ], [ -130.117635, 69.720088 ], [ -128.898949, 69.966171 ], [ -129.157897, 69.800079 ], [ -128.85301, 69.751036 ], [ -127.683779, 70.260363 ], [ -128.170105, 70.418445 ], [ -127.990995, 70.573835 ], [ -125.524966, 69.351584 ], [ -125.171865, 69.427983 ], [ -125.356919, 69.625957 ], [ -124.767909, 69.990022 ], [ -124.990404, 70.026628 ], [ -124.555027, 70.151224 ], [ -124.406925, 69.767417 ], [ -124.124615, 69.690007 ], [ -124.481336, 69.425171 ], [ -124.338091, 69.364834 ], [ -123.528398, 69.389355 ], [ -123.025768, 69.81 ], [ -121.531106, 69.775789 ], [ -120.681851, 69.566938 ], [ -120.677951, 68.002848 ], [ -112.503903, 65.502337 ], [ -110.669466, 65.497141 ], [ -108.97293, 64.779195 ], [ -101.999144, 64.228429 ], [ -102.001649, 60.001087 ] ] ], [ [ [ -110.004365, 78.686723 ], [ -110.003667, 78.321702 ], [ -113.292562, 78.334391 ], [ -110.877569, 78.735041 ], [ -110.004365, 78.686723 ] ] ], [ [ [ -110.003541, 78.089649 ], [ -110.00359, 77.928941 ], [ -110.865605, 77.834118 ], [ -110.152752, 77.762959 ], [ -110.198488, 77.524523 ], [ -110.893999, 77.425976 ], [ -112.372671, 77.364112 ], [ -113.164352, 77.530258 ], [ -113.283465, 77.813024 ], [ -110.003541, 78.089649 ] ] ], [ [ [ -113.617917, 77.832404 ], [ -114.608345, 77.769331 ], [ -115.029358, 77.967536 ], [ -114.33038, 78.077564 ], [ -113.617917, 77.832404 ] ] ], [ [ [ -115.551285, 77.363288 ], [ -116.3292, 77.137046 ], [ -115.810057, 76.939127 ], [ -116.252746, 76.9014 ], [ -115.946304, 76.71126 ], [ -116.999234, 76.531612 ], [ -117.233616, 76.281519 ], [ -117.992975, 76.405829 ], [ -117.88081, 76.805083 ], [ -118.791401, 76.512979 ], [ -118.624535, 76.365883 ], [ -118.993945, 76.14486 ], [ -119.580346, 76.326508 ], [ -119.739636, 76.117735 ], [ -119.526134, 75.997226 ], [ -119.91288, 75.858831 ], [ -120.408874, 75.82563 ], [ -120.848382, 76.182686 ], [ -122.400481, 75.944249 ], [ -122.902804, 76.13473 ], [ -119.090191, 77.305104 ], [ -116.843536, 77.339568 ], [ -117.039724, 77.46512 ], [ -116.511309, 77.547616 ], [ -115.551285, 77.363288 ] ] ], [ [ [ -113.560711, 76.743274 ], [ -113.71246, 76.710568 ], [ -114.835257, 76.79469 ], [ -113.891647, 76.894864 ], [ -113.560711, 76.743274 ] ] ], [ [ [ -110.002404, 75.539063 ], [ -110.002816, 74.850989 ], [ -112.519355, 74.416853 ], [ -114.37694, 74.670846 ], [ -111.033476, 75.226776 ], [ -113.711789, 75.068617 ], [ -113.853304, 75.259384 ], [ -113.467074, 75.416126 ], [ -114.016523, 75.434264 ], [ -114.51383, 75.275512 ], [ -114.451768, 75.087876 ], [ -115.728846, 74.968136 ], [ -117.600104, 75.271688 ], [ -115.141858, 75.678534 ], [ -117.163644, 75.644894 ], [ -114.991526, 75.896349 ], [ -116.664525, 75.957587 ], [ -116.20985, 76.194419 ], [ -114.778595, 76.172611 ], [ -115.831733, 76.295779 ], [ -114.766867, 76.505695 ], [ -113.823487, 76.206823 ], [ -112.697614, 76.201703 ], [ -111.163285, 75.57022 ], [ -110.002404, 75.539063 ] ] ], [ [ [ -110.003409, 76.479668 ], [ -110.002635, 76.244231 ], [ -110.314449, 76.369398 ], [ -110.270009, 76.416991 ], [ -110.003409, 76.479668 ] ] ], [ [ [ -117.512614, 76.099442 ], [ -118.817136, 75.522111 ], [ -119.394567, 75.617318 ], [ -117.512614, 76.099442 ] ] ], [ [ [ -120.921243, 75.814446 ], [ -121.240913, 75.751857 ], [ -120.887812, 75.927979 ], [ -120.921243, 75.814446 ] ] ], [ [ [ -119.736302, 74.112631 ], [ -117.514839, 74.231745 ], [ -115.392824, 73.501978 ], [ -118.961568, 72.684144 ], [ -119.512857, 72.302666 ], [ -120.179892, 72.212644 ], [ -120.619323, 71.505762 ], [ -122.83994, 71.097466 ], [ -124.007776, 71.677434 ], [ -125.84531, 71.978657 ], [ -124.987119, 72.588003 ], [ -124.969678, 72.843303 ], [ -124.564947, 72.944125 ], [ -124.804054, 73.125663 ], [ -123.797272, 73.768154 ], [ -124.696261, 74.348178 ], [ -121.504156, 74.545119 ], [ -119.562647, 74.232832 ], [ -119.736302, 74.112631 ] ] ], [ [ [ -110.001833, 72.981852 ], [ -110.000025, 70.001151 ], [ -112.874939, 69.833357 ], [ -112.881064, 70.00136 ], [ -117.055358, 70.002184 ], [ -116.650495, 69.649808 ], [ -116.856038, 69.649677 ], [ -117.162738, 70.092491 ], [ -111.632561, 70.308834 ], [ -113.757289, 70.690719 ], [ -117.587058, 70.629536 ], [ -118.376513, 70.967706 ], [ -115.303423, 71.493721 ], [ -117.935637, 71.392075 ], [ -118.226445, 71.467112 ], [ -117.742344, 71.659351 ], [ -118.993742, 71.80303 ], [ -118.213504, 72.262874 ], [ -118.48129, 72.427669 ], [ -118.133122, 72.632827 ], [ -114.638217, 73.37268 ], [ -114.05169, 73.070995 ], [ -114.521531, 72.592936 ], [ -113.578075, 72.652108 ], [ -113.073555, 72.995288 ], [ -111.269743, 72.713731 ], [ -111.895178, 72.356104 ], [ -111.675116, 72.300139 ], [ -110.205129, 72.661304 ], [ -110.660837, 73.008208 ], [ -110.001833, 72.981852 ] ] ] ] } },
{ "type": "Feature", "properties": { "name": "Nunavut", "is_manitoba": false }, "geometry": { "type": "MultiPolygon", "coordinates": [ [ [ [ -94.771886, 60.001768 ], [ -102.001649, 60.001087 ], [ -101.999144, 64.228429 ], [ -108.97293, 64.779195 ], [ -110.669466, 65.497141 ], [ -112.503903, 65.502337 ], [ -120.677951, 68.002848 ], [ -120.681851, 69.566938 ], [ -117.226948, 68.913417 ], [ -115.442301, 68.940905 ], [ -113.964409, 68.399081 ], [ -115.434501, 67.902367 ], [ -115.133223, 67.819167 ], [ -112.503052, 67.681937 ], [ -110.073947, 67.992927 ], [ -107.988725, 67.256415 ], [ -107.991307, 67.095179 ], [ -108.496057, 67.09229 ], [ -107.259491, 66.398536 ], [ -107.746004, 66.961498 ], [ -107.156505, 66.881759 ], [ -107.958392, 67.818596 ], [ -107.798272, 68.036927 ], [ -106.42425, 68.200591 ], [ -105.750206, 68.592297 ], [ -107.734167, 68.173718 ], [ -108.718113, 68.29749 ], [ -108.313487, 68.610776 ], [ -106.164473, 68.919877 ], [ -104.486822, 68.063185 ], [ -103.474146, 68.115018 ], [ -102.320362, 67.73566 ], [ -98.412129, 67.807181 ], [ -98.631543, 68.072534 ], [ -97.454924, 67.617008 ], [ -97.139852, 67.796228 ], [ -98.192529, 67.922988 ], [ -98.650483, 68.363529 ], [ -97.828547, 68.532773 ], [ -96.430646, 68.310608 ], [ -96.722075, 68.038795 ], [ -95.970286, 68.249139 ], [ -96.369123, 67.509759 ], [ -95.418899, 67.013243 ], [ -96.422533, 67.051772 ], [ -95.787534, 66.616813 ], [ -96.036874, 66.937493 ], [ -95.399651, 66.949457 ], [ -95.258751, 67.262556 ], [ -95.650485, 67.73744 ], [ -95.460707, 68.021382 ], [ -94.744421, 68.070886 ], [ -93.448918, 68.618917 ], [ -93.852457, 69.000341 ], [ -94.064872, 68.784745 ], [ -94.600423, 68.803246 ], [ -94.083631, 69.123091 ], [ -94.254732, 69.313759 ], [ -93.619497, 69.417008 ], [ -93.748537, 69.226132 ], [ -93.532271, 69.480926 ], [ -95.964936, 69.802771 ], [ -96.551364, 70.210287 ], [ -96.297706, 70.511378 ], [ -95.878638, 70.548973 ], [ -96.548931, 70.808723 ], [ -96.44656, 71.239893 ], [ -95.564237, 71.336781 ], [ -95.406264, 71.491655 ], [ -95.872332, 71.573152 ], [ -94.734857, 71.982975 ], [ -93.746313, 71.742803 ], [ -92.948689, 71.262107 ], [ -92.98145, 70.852262 ], [ -91.564076, 70.178251 ], [ -92.320507, 70.235347 ], [ -92.511867, 70.10384 ], [ -91.976701, 70.038669 ], [ -92.887786, 69.668199 ], [ -90.415565, 69.456998 ], [ -91.237211, 69.285535 ], [ -90.479022, 68.881172 ], [ -90.573637, 68.474689 ], [ -90.24776, 68.26741 ], [ -89.279557, 69.255465 ], [ -88.041332, 68.811716 ], [ -87.827912, 68.299962 ], [ -88.34695, 68.288284 ], [ -88.313837, 67.950322 ], [ -87.359389, 67.177247 ], [ -86.560814, 67.482107 ], [ -85.689774, 68.670948 ], [ -84.867579, 68.773319 ], [ -85.106664, 68.844071 ], [ -84.862207, 69.073971 ], [ -85.386771, 69.231899 ], [ -85.507357, 69.845244 ], [ -82.618359, 69.69104 ], [ -82.374188, 69.641799 ], [ -82.754842, 69.494363 ], [ -82.227565, 69.248895 ], [ -81.321599, 69.138933 ], [ -81.957938, 68.883655 ], [ -81.380914, 68.850059 ], [ -81.281543, 68.657205 ], [ -82.552683, 68.446465 ], [ -81.294364, 67.497433 ], [ -81.387198, 67.188563 ], [ -82.641519, 66.587512 ], [ -83.523083, 66.368763 ], [ -84.845772, 67.028723 ], [ -85.111289, 66.8909 ], [ -84.63858, 66.902325 ], [ -83.797566, 66.238465 ], [ -84.4784, 66.179315 ], [ -85.603861, 66.568242 ], [ -86.708163, 66.523066 ], [ -85.958731, 66.119066 ], [ -87.452904, 65.33896 ], [ -89.749398, 65.936023 ], [ -91.41152, 65.959358 ], [ -87.002695, 65.108587 ], [ -88.105624, 64.183319 ], [ -89.200653, 64.113764 ], [ -89.131549, 63.968503 ], [ -90.041657, 64.14089 ], [ -89.855724, 63.956979 ], [ -90.168186, 63.978753 ], [ -90.013444, 63.804269 ], [ -90.245288, 63.641902 ], [ -92.338442, 63.787657 ], [ -93.696341, 64.147141 ], [ -93.559814, 63.865298 ], [ -92.156877, 63.691692 ], [ -92.465076, 63.555088 ], [ -91.841855, 63.697558 ], [ -90.970045, 63.442796 ], [ -90.698595, 63.063856 ], [ -92.361283, 62.819366 ], [ -91.935832, 62.592411 ], [ -92.551401, 62.546729 ], [ -92.767975, 62.379968 ], [ -92.527962, 62.168426 ], [ -93.205362, 62.364928 ], [ -92.90554, 62.215118 ], [ -93.581776, 61.942064 ], [ -93.312023, 61.767293 ], [ -93.912761, 61.481462 ], [ -94.761702, 60.498219 ], [ -94.771886, 60.001768 ] ] ], [ [ [ -110.003667, 78.321702 ], [ -110.004365, 78.686723 ], [ -109.342159, 78.455988 ], [ -109.484475, 78.316407 ], [ -110.003667, 78.321702 ] ] ], [ [ [ -109.771795, 77.957417 ], [ -110.003541, 78.089649 ], [ -109.622244, 78.074773 ], [ -109.771795, 77.957417 ] ] ], [ [ [ -110.002816, 74.850989 ], [ -110.002404, 75.539063 ], [ -108.912571, 75.586963 ], [ -109.796059, 75.863017 ], [ -109.430368, 76.109154 ], [ -110.002635, 76.244231 ], [ -110.003409, 76.479668 ], [ -109.219557, 76.79201 ], [ -108.467015, 76.737594 ], [ -108.62763, 76.586697 ], [ -108.123214, 76.233432 ], [ -108.40614, 76.085072 ], [ -107.723499, 75.995413 ], [ -108.02069, 75.804778 ], [ -107.216189, 75.891548 ], [ -106.913521, 75.679622 ], [ -106.688081, 75.819038 ], [ -106.845642, 75.951544 ], [ -106.396603, 76.060111 ], [ -105.480893, 75.745661 ], [ -106.092639, 75.089447 ], [ -110.002816, 74.850989 ] ] ], [ [ [ -116.856038, 69.649677 ], [ -116.650495, 69.649808 ], [ -117.055358, 70.002184 ], [ -112.881064, 70.00136 ], [ -112.874939, 69.833357 ], [ -110.000025, 70.001151 ], [ -110.001833, 72.981852 ], [ -108.754983, 72.551078 ], [ -108.188221, 71.723785 ], [ -107.785456, 71.629688 ], [ -107.306002, 71.894678 ], [ -107.695852, 72.149319 ], [ -108.238219, 73.105822 ], [ -107.936194, 73.217135 ], [ -108.029034, 73.348751 ], [ -105.624165, 72.927514 ], [ -104.385924, 71.576953 ], [ -104.514804, 71.064265 ], [ -103.584575, 70.630855 ], [ -101.090778, 70.13569 ], [ -100.905724, 69.811736 ], [ -102.234323, 69.842245 ], [ -102.621096, 69.551514 ], [ -103.434766, 69.667683 ], [ -103.048948, 69.471786 ], [ -103.120211, 69.204609 ], [ -102.151409, 69.487694 ], [ -101.789283, 69.181615 ], [ -102.895057, 68.823658 ], [ -105.10588, 68.920393 ], [ -105.019577, 69.081266 ], [ -106.140852, 69.162037 ], [ -106.659066, 69.439585 ], [ -107.439898, 69.002142 ], [ -109.472099, 68.676683 ], [ -112.864266, 68.477117 ], [ -113.554822, 68.767584 ], [ -113.69414, 69.195029 ], [ -116.101536, 69.337159 ], [ -116.856038, 69.649677 ] ] ], [ [ [ -86.595531, 67.735913 ], [ -86.959805, 68.100242 ], [ -86.702088, 68.305598 ], [ -86.421123, 68.18343 ], [ -86.595531, 67.735913 ] ] ], [ [ [ -109.469128, 68.098011 ], [ -109.360813, 67.987577 ], [ -109.497961, 68.047013 ], [ -109.469128, 68.098011 ] ] ], [ [ [ -73.621732, 67.783824 ], [ -74.48072, 67.804907 ], [ -74.749281, 68.018437 ], [ -73.435228, 67.97001 ], [ -73.621732, 67.783824 ] ] ], [ [ [ -109.09623, 67.924021 ], [ -108.970502, 67.979722 ], [ -108.886061, 67.898544 ], [ -109.09623, 67.924021 ] ] ], [ [ [ -107.899868, 67.40183 ], [ -108.152257, 67.429427 ], [ -108.127527, 67.628588 ], [ -107.990873, 67.622128 ], [ -107.899868, 67.40183 ] ] ], [ [ [ -62.484605, 67.134247 ], [ -62.871631, 67.062572 ], [ -62.396341, 67.178324 ], [ -62.484605, 67.134247 ] ] ], [ [ [ -107.943923, 66.857831 ], [ -107.966456, 66.99728 ], [ -107.805534, 66.998599 ], [ -107.943923, 66.857831 ] ] ], [ [ [ -83.237856, 66.331531 ], [ -82.948158, 66.271919 ], [ -82.931338, 66.257296 ], [ -83.059889, 66.199266 ], [ -83.237856, 66.331531 ] ] ], [ [ [ -84.467391, 66.088271 ], [ -83.233934, 65.696554 ], [ -84.118246, 65.771799 ], [ -84.467391, 66.088271 ] ] ], [ [ [ -84.674769, 65.575012 ], [ -85.096348, 65.756199 ], [ -85.149631, 66.015399 ], [ -84.757354, 65.858921 ], [ -84.674769, 65.575012 ] ] ], [ [ [ -84.919622, 65.261078 ], [ -84.501141, 65.458436 ], [ -82.050026, 64.644294 ], [ -81.676117, 64.212641 ], [ -81.887087, 64.016404 ], [ -80.828961, 64.089935 ], [ -80.261319, 63.80195 ], [ -81.04637, 63.46155 ], [ -82.378121, 63.706809 ], [ -82.467111, 63.926953 ], [ -83.30395, 64.14379 ], [ -84.632911, 63.309214 ], [ -85.392616, 63.119666 ], [ -85.76892, 63.700327 ], [ -87.177125, 63.595133 ], [ -86.252098, 64.136858 ], [ -86.374255, 64.56583 ], [ -85.813986, 65.831949 ], [ -85.241093, 65.795519 ], [ -84.919622, 65.261078 ] ] ], [ [ [ -77.563604, 64.022084 ], [ -77.714062, 63.945707 ], [ -77.96599, 63.992937 ], [ -77.563604, 64.022084 ] ] ], [ [ [ -76.67759, 63.393962 ], [ -76.92186, 63.406366 ], [ -77.364752, 63.58831 ], [ -77.133687, 63.682057 ], [ -76.67759, 63.393962 ] ] ], [ [ [ -77.876693, 63.470548 ], [ -77.532733, 63.233661 ], [ -77.942424, 63.114393 ], [ -78.536752, 63.423724 ], [ -77.876693, 63.470548 ] ] ], [ [ [ -82.000466, 62.95419 ], [ -82.113746, 62.652253 ], [ -83.015801, 62.2099 ], [ -83.698865, 62.160263 ], [ -83.912395, 62.425517 ], [ -83.376405, 62.90495 ], [ -82.000466, 62.95419 ] ] ], [ [ [ -70.337072, 62.54874 ], [ -70.766066, 62.596849 ], [ -71.220142, 62.873913 ], [ -70.442618, 62.733794 ], [ -70.337072, 62.54874 ] ] ], [ [ [ -74.108932, 62.680312 ], [ -74.253523, 62.621997 ], [ -74.626443, 62.712766 ], [ -74.108932, 62.680312 ] ] ], [ [ [ -64.956496, 62.458355 ], [ -64.515307, 62.551794 ], [ -64.418078, 62.487403 ], [ -64.956496, 62.458355 ] ] ], [ [ [ -79.545318, 62.411696 ], [ -79.272001, 62.185993 ], [ -79.668772, 61.644455 ], [ -80.265176, 61.818193 ], [ -80.021598, 62.342966 ], [ -79.545318, 62.411696 ] ] ], [ [ [ -65.23534, 61.897723 ], [ -64.960572, 61.871674 ], [ -64.847039, 61.761504 ], [ -65.23534, 61.897723 ] ] ], [ [ [ -92.993024, 61.889714 ], [ -93.084804, 61.841704 ], [ -93.196683, 61.918542 ], [ -92.993024, 61.889714 ] ] ], [ [ [ -64.832625, 61.366051 ], [ -65.393884, 61.56286 ], [ -65.432127, 61.64952 ], [ -64.789635, 61.662231 ], [ -64.832625, 61.366051 ] ] ], [ [ [ -78.278858, 60.783885 ], [ -78.668884, 60.716912 ], [ -78.241681, 60.818668 ], [ -78.278858, 60.783885 ] ] ], [ [ [ -68.233817, 60.240919 ], [ -68.141883, 60.561983 ], [ -67.818852, 60.449494 ], [ -67.92231, 60.339884 ], [ -68.233817, 60.240919 ] ] ], [ [ [ -64.407015, 60.367064 ], [ -64.737956, 60.375644 ], [ -64.836426, 60.501009 ], [ -64.646308, 60.514599 ], [ -64.407015, 60.367064 ] ] ], [ [ [ -79.949637, 59.809914 ], [ -80.16709, 59.763848 ], [ -79.898628, 59.853145 ], [ -79.949637, 59.809914 ] ] ], [ [ [ -80.183064, 59.683494 ], [ -80.29897, 59.674189 ], [ -80.167244, 59.708862 ], [ -80.183064, 59.683494 ] ] ], [ [ [ -69.303204, 59.144868 ], [ -69.220861, 58.967559 ], [ -69.352818, 58.960748 ], [ -69.303204, 59.144868 ] ] ], [ [ [ -79.742567, 57.607957 ], [ -79.808452, 57.442437 ], [ -79.838225, 57.482999 ], [ -79.742567, 57.607957 ] ] ], [ [ [ -79.826645, 56.843089 ], [ -79.943672, 56.776765 ], [ -79.898166, 56.86526 ], [ -79.826645, 56.843089 ] ] ], [ [ [ -79.491057, 56.742685 ], [ -79.577388, 56.644918 ], [ -79.570126, 56.795705 ], [ -79.491057, 56.742685 ] ] ], [ [ [ -78.935588, 56.266076 ], [ -79.175475, 55.885059 ], [ -79.182143, 56.212177 ], [ -79.495089, 55.874754 ], [ -79.764737, 55.806771 ], [ -79.544725, 56.128363 ], [ -80.008238, 55.911053 ], [ -79.458867, 56.539724 ], [ -79.536332, 56.180086 ], [ -79.272418, 56.600423 ], [ -78.935588, 56.266076 ] ] ], [ [ [ -79.687943, 56.326798 ], [ -80.05749, 56.287368 ], [ -79.579739, 56.466346 ], [ -79.687943, 56.326798 ] ] ], [ [ [ -78.826505, 56.145303 ], [ -78.799424, 56.383278 ], [ -78.66873, 56.438627 ], [ -78.672817, 56.260495 ], [ -78.826505, 56.145303 ] ] ], [ [ [ -79.974565, 53.352249 ], [ -80.004108, 53.28008 ], [ -80.074025, 53.344284 ], [ -79.974565, 53.352249 ] ] ], [ [ [ -80.731677, 52.747276 ], [ -81.096599, 52.779883 ], [ -82.039281, 53.049883 ], [ -81.135611, 53.205801 ], [ -80.731677, 52.747276 ] ] ], [ [ [ -79.271308, 52.0868 ], [ -79.520621, 51.952953 ], [ -79.643767, 52.01006 ], [ -79.271308, 52.0868 ] ] ], [ [ [ -73.44071, 82.945837 ], [ -66.422577, 82.926874 ], [ -68.469352, 82.653359 ], [ -64.904871, 82.900837 ], [ -63.498698, 82.792566 ], [ -63.64252, 82.712992 ], [ -63.085337, 82.565248 ], [ -63.246781, 82.45021 ], [ -61.207213, 82.34105 ], [ -62.176713, 82.04342 ], [ -68.688541, 81.293328 ], [ -64.780066, 81.492851 ], [ -69.550682, 80.383265 ], [ -70.712574, 80.539578 ], [ -70.264881, 80.233609 ], [ -72.055982, 80.123218 ], [ -70.559073, 80.071 ], [ -71.387838, 79.761746 ], [ -74.394466, 79.874092 ], [ -74.660214, 79.835179 ], [ -73.201109, 79.596589 ], [ -76.898844, 79.512301 ], [ -74.481181, 79.22948 ], [ -74.532323, 79.052743 ], [ -78.581653, 79.075024 ], [ -74.433127, 78.724131 ], [ -76.416126, 78.511535 ], [ -75.193436, 78.327722 ], [ -75.96962, 77.993123 ], [ -78.012594, 77.946046 ], [ -78.076161, 77.519063 ], [ -78.493213, 77.369385 ], [ -80.573057, 77.314816 ], [ -81.659088, 77.525446 ], [ -81.27772, 77.365199 ], [ -82.056793, 77.296524 ], [ -79.497264, 77.196087 ], [ -79.220738, 76.936051 ], [ -77.998751, 76.851951 ], [ -78.284308, 76.571217 ], [ -80.799715, 76.173567 ], [ -80.97453, 76.470066 ], [ -82.529842, 76.723279 ], [ -82.233168, 76.465825 ], [ -83.885698, 76.453114 ], [ -84.223792, 76.675324 ], [ -84.275339, 76.356533 ], [ -85.343617, 76.313379 ], [ -86.453709, 76.584884 ], [ -86.680236, 76.376627 ], [ -87.489796, 76.585818 ], [ -87.497553, 76.386295 ], [ -88.395993, 76.405258 ], [ -88.495858, 76.772838 ], [ -88.54578, 76.420913 ], [ -89.57008, 76.491918 ], [ -89.499745, 76.826781 ], [ -88.556217, 77.072194 ], [ -86.812236, 77.184925 ], [ -87.681464, 77.436358 ], [ -88.016975, 77.784734 ], [ -86.755064, 77.863726 ], [ -84.487035, 77.36799 ], [ -83.608074, 77.442246 ], [ -82.595288, 77.992134 ], [ -83.779373, 77.532631 ], [ -84.860548, 77.499507 ], [ -85.289367, 77.559042 ], [ -85.547534, 77.927699 ], [ -84.222704, 78.176001 ], [ -84.910371, 78.239722 ], [ -84.783193, 78.527608 ], [ -85.585931, 78.109545 ], [ -86.217777, 78.081178 ], [ -85.920048, 78.342862 ], [ -87.551726, 78.176628 ], [ -86.80793, 78.774361 ], [ -83.27142, 78.77034 ], [ -81.750099, 78.975773 ], [ -84.411998, 78.99657 ], [ -84.567751, 79.071299 ], [ -83.575873, 79.053677 ], [ -86.420739, 79.845209 ], [ -86.498544, 80.258229 ], [ -83.723617, 80.228951 ], [ -81.688367, 79.685808 ], [ -80.475937, 79.606256 ], [ -80.124485, 79.669505 ], [ -81.01017, 79.693125 ], [ -82.987028, 80.322587 ], [ -76.863006, 80.864784 ], [ -78.716224, 80.951653 ], [ -76.885122, 81.430273 ], [ -81.007016, 80.654869 ], [ -82.884338, 80.577558 ], [ -82.222368, 80.772334 ], [ -85.145852, 80.521132 ], [ -86.615405, 80.630039 ], [ -83.288833, 81.147946 ], [ -85.780862, 81.035083 ], [ -87.711665, 80.656264 ], [ -89.263253, 80.914289 ], [ -86.476758, 81.035721 ], [ -84.941221, 81.286231 ], [ -89.623056, 81.032469 ], [ -89.980935, 81.12471 ], [ -89.208717, 81.250075 ], [ -89.67367, 81.328627 ], [ -89.427016, 81.387437 ], [ -87.597023, 81.525821 ], [ -90.303527, 81.401126 ], [ -90.609035, 81.429548 ], [ -89.821688, 81.63486 ], [ -91.684069, 81.635684 ], [ -88.063195, 82.096484 ], [ -85.044833, 81.982797 ], [ -86.615636, 82.218553 ], [ -84.896825, 82.449441 ], [ -79.424864, 81.854433 ], [ -82.447544, 82.395026 ], [ -81.68116, 82.518633 ], [ -82.116844, 82.62865 ], [ -80.809691, 82.586386 ], [ -81.178063, 82.744688 ], [ -81.01017, 82.779031 ], [ -78.748777, 82.679374 ], [ -80.15495, 82.91112 ], [ -79.886334, 82.938509 ], [ -77.479581, 82.88316 ], [ -76.009358, 82.535168 ], [ -75.56562, 82.608545 ], [ -77.12492, 83.008547 ], [ -74.414187, 83.013128 ], [ -72.658714, 82.721639 ], [ -73.44071, 82.945837 ] ] ], [ [ [ -91.885547, 81.132873 ], [ -90.643015, 80.593686 ], [ -89.235579, 80.51064 ], [ -89.198324, 80.263162 ], [ -88.857331, 80.166197 ], [ -88.199909, 80.111496 ], [ -88.612511, 80.255384 ], [ -88.524818, 80.418036 ], [ -87.675004, 80.372102 ], [ -87.625499, 80.187203 ], [ -87.922328, 80.097719 ], [ -86.977196, 79.894219 ], [ -87.295184, 79.580153 ], [ -85.647872, 79.61142 ], [ -85.042141, 79.284566 ], [ -87.617381, 78.67633 ], [ -87.922306, 78.751344 ], [ -87.816749, 79.036341 ], [ -88.0402, 78.995329 ], [ -88.253786, 78.67199 ], [ -87.982841, 78.537067 ], [ -88.741579, 78.584045 ], [ -88.606447, 78.392014 ], [ -88.822427, 78.185878 ], [ -90.037086, 78.60683 ], [ -89.489835, 78.171947 ], [ -90.459049, 78.33093 ], [ -90.652387, 78.307727 ], [ -90.326752, 78.18479 ], [ -91.40963, 78.187987 ], [ -92.84823, 78.460119 ], [ -91.866892, 78.542703 ], [ -93.2666, 78.60828 ], [ -93.634406, 78.750927 ], [ -93.15984, 78.775657 ], [ -94.169671, 78.972807 ], [ -91.299899, 79.372731 ], [ -95.103179, 79.289894 ], [ -95.732987, 79.418203 ], [ -94.401883, 79.736324 ], [ -95.8575, 79.673789 ], [ -96.77326, 80.135776 ], [ -94.645895, 80.048709 ], [ -94.262588, 80.194871 ], [ -96.394111, 80.315017 ], [ -95.54907, 80.36662 ], [ -96.151824, 80.553487 ], [ -95.926956, 80.720655 ], [ -93.927906, 80.559189 ], [ -95.514732, 80.838121 ], [ -95.269759, 81.000795 ], [ -93.235646, 81.128852 ], [ -94.179361, 81.339273 ], [ -91.885547, 81.132873 ] ] ], [ [ [ -98.791614, 79.98111 ], [ -98.945197, 79.724074 ], [ -100.12603, 80.00127 ], [ -99.731219, 80.144103 ], [ -98.791614, 79.98111 ] ] ], [ [ [ -105.387668, 79.323578 ], [ -102.914332, 79.231084 ], [ -102.57619, 78.879368 ], [ -101.703655, 79.078924 ], [ -101.037159, 78.939035 ], [ -101.128137, 78.801651 ], [ -100.014766, 78.728636 ], [ -99.582135, 78.563269 ], [ -99.847801, 78.438212 ], [ -99.751346, 78.30297 ], [ -98.999634, 77.996891 ], [ -99.955906, 77.793809 ], [ -101.074133, 78.193832 ], [ -102.731322, 78.371031 ], [ -104.512634, 78.294654 ], [ -104.99555, 78.518511 ], [ -103.570518, 78.539836 ], [ -104.020826, 78.634911 ], [ -103.371567, 78.736326 ], [ -104.185006, 78.781293 ], [ -103.875642, 78.902681 ], [ -104.151931, 78.989912 ], [ -104.895503, 78.808166 ], [ -104.746781, 79.027112 ], [ -105.580192, 79.11419 ], [ -105.387668, 79.323578 ] ] ], [ [ [ -98.340812, 78.751212 ], [ -94.91539, 78.390509 ], [ -95.329239, 78.225044 ], [ -94.934303, 78.075652 ], [ -96.989631, 77.806026 ], [ -97.658165, 78.090638 ], [ -96.944669, 78.151875 ], [ -98.049487, 78.325921 ], [ -98.340812, 78.751212 ] ] ], [ [ [ -102.78827, 78.218167 ], [ -103.118195, 78.126343 ], [ -103.273585, 78.165773 ], [ -102.78827, 78.218167 ] ] ], [ [ [ -101.002047, 77.735098 ], [ -102.377826, 77.728122 ], [ -102.471545, 77.873493 ], [ -101.002047, 77.735098 ] ] ], [ [ [ -96.276596, 77.630563 ], [ -93.582864, 77.77076 ], [ -93.128727, 77.660171 ], [ -93.836181, 77.452222 ], [ -96.276596, 77.630563 ] ] ], [ [ [ -104.558134, 77.141726 ], [ -105.215073, 77.182057 ], [ -106.066129, 77.725386 ], [ -105.289665, 77.642088 ], [ -104.542243, 77.337755 ], [ -104.558134, 77.141726 ] ] ], [ [ [ -89.833246, 77.267608 ], [ -90.993205, 77.329494 ], [ -91.182653, 77.557174 ], [ -90.171933, 77.594693 ], [ -89.719472, 77.442148 ], [ -89.833246, 77.267608 ] ] ], [ [ [ -95.849519, 77.066228 ], [ -93.211877, 76.7547 ], [ -93.534568, 76.447687 ], [ -91.305041, 76.680751 ], [ -90.542611, 76.495774 ], [ -91.41508, 76.45585 ], [ -89.284523, 76.301624 ], [ -91.407334, 76.22005 ], [ -89.277602, 75.795088 ], [ -89.646039, 75.565056 ], [ -88.916679, 75.453952 ], [ -88.644965, 75.658429 ], [ -85.951491, 75.39501 ], [ -86.068748, 75.502269 ], [ -83.931973, 75.818961 ], [ -82.15366, 75.831035 ], [ -79.660191, 75.449502 ], [ -79.509097, 75.259801 ], [ -80.381982, 75.034175 ], [ -79.40143, 74.917621 ], [ -80.347749, 74.902998 ], [ -80.148929, 74.795717 ], [ -80.277733, 74.581571 ], [ -81.940184, 74.472719 ], [ -82.931052, 74.565575 ], [ -83.522084, 74.901471 ], [ -83.341315, 74.764581 ], [ -83.531895, 74.58568 ], [ -84.425533, 74.508084 ], [ -88.423041, 74.494164 ], [ -88.557843, 74.569717 ], [ -88.339545, 74.78484 ], [ -88.534948, 74.831763 ], [ -89.55872, 74.554721 ], [ -90.880243, 74.817755 ], [ -91.508365, 74.650686 ], [ -92.389237, 75.263317 ], [ -92.068876, 75.657913 ], [ -92.185117, 75.846537 ], [ -93.091731, 76.353996 ], [ -95.273896, 76.264391 ], [ -96.039714, 76.486699 ], [ -95.651001, 76.584676 ], [ -96.89801, 76.753997 ], [ -96.401576, 76.797228 ], [ -96.758324, 76.97179 ], [ -95.849519, 77.066228 ] ] ], [ [ [ -89.726459, 76.50742 ], [ -90.164572, 76.523603 ], [ -90.562475, 76.754282 ], [ -89.948767, 76.83624 ], [ -89.695401, 76.741154 ], [ -89.726459, 76.50742 ] ] ], [ [ [ -100.746559, 76.649176 ], [ -101.613068, 76.604572 ], [ -100.269143, 76.734123 ], [ -100.746559, 76.649176 ] ] ], [ [ [ -97.700929, 76.466496 ], [ -97.531042, 76.109407 ], [ -97.890504, 75.760338 ], [ -97.40754, 75.672514 ], [ -97.336019, 75.419839 ], [ -97.878232, 75.416126 ], [ -97.659923, 75.151179 ], [ -98.068735, 75.199157 ], [ -97.991814, 75.04581 ], [ -100.234393, 75.00772 ], [ -100.483497, 75.188434 ], [ -100.145717, 75.246156 ], [ -100.731157, 75.346516 ], [ -99.194559, 75.698375 ], [ -102.797493, 75.599674 ], [ -102.144718, 75.875058 ], [ -101.261412, 75.758196 ], [ -100.972795, 75.798428 ], [ -101.87212, 76.083106 ], [ -101.557026, 76.23586 ], [ -102.137742, 76.284848 ], [ -101.787531, 76.45128 ], [ -99.865472, 75.924199 ], [ -99.688895, 75.959707 ], [ -100.112852, 76.117218 ], [ -99.541052, 76.146288 ], [ -100.890788, 76.475482 ], [ -100.068692, 76.634751 ], [ -98.890342, 76.465562 ], [ -99.023612, 76.614547 ], [ -98.710815, 76.693869 ], [ -97.700929, 76.466496 ] ] ], [ [ [ -104.603041, 76.58272 ], [ -103.722761, 76.601056 ], [ -103.033551, 76.431515 ], [ -104.270661, 76.326244 ], [ -104.603041, 76.58272 ] ] ], [ [ [ -102.728015, 76.307018 ], [ -102.008032, 75.939394 ], [ -103.314746, 75.764217 ], [ -103.04151, 75.918827 ], [ -104.406051, 76.108484 ], [ -102.728015, 76.307018 ] ] ], [ [ [ -78.84516, 76.106309 ], [ -79.355639, 75.831134 ], [ -79.698743, 75.883275 ], [ -78.84516, 76.106309 ] ] ], [ [ [ -94.296305, 75.788057 ], [ -94.751446, 75.769666 ], [ -94.901206, 75.930769 ], [ -94.498673, 75.992205 ], [ -94.296305, 75.788057 ] ] ], [ [ [ -96.078573, 75.510125 ], [ -96.857108, 75.369148 ], [ -97.020662, 75.468058 ], [ -96.36781, 75.654661 ], [ -96.078573, 75.510125 ] ] ], [ [ [ -93.542604, 75.027924 ], [ -93.573097, 74.668825 ], [ -94.53451, 74.636734 ], [ -96.599599, 75.031802 ], [ -95.954653, 75.443822 ], [ -94.878185, 75.630008 ], [ -93.90907, 75.422531 ], [ -93.542604, 75.027924 ] ] ], [ [ [ -103.64349, 75.186577 ], [ -104.634308, 75.061289 ], [ -104.887389, 75.147763 ], [ -104.346208, 75.429914 ], [ -103.64349, 75.186577 ] ] ], [ [ [ -95.306657, 74.505425 ], [ -95.777196, 74.550744 ], [ -95.850733, 74.582472 ], [ -95.510212, 74.636789 ], [ -95.306657, 74.505425 ] ] ], [ [ [ -97.416526, 74.62656 ], [ -97.6561, 74.465687 ], [ -97.749994, 74.510545 ], [ -97.416526, 74.62656 ] ] ], [ [ [ -93.170871, 74.161004 ], [ -90.354613, 73.868646 ], [ -92.117941, 72.753798 ], [ -94.211325, 72.756951 ], [ -93.541621, 72.437029 ], [ -94.14376, 72.000828 ], [ -95.192943, 72.027437 ], [ -95.251028, 72.501958 ], [ -95.602167, 72.884491 ], [ -95.632918, 73.695447 ], [ -94.697597, 73.663565 ], [ -95.134139, 73.881226 ], [ -94.973524, 74.041428 ], [ -93.170871, 74.161004 ] ] ], [ [ [ -97.659148, 74.07163 ], [ -98.973926, 73.812056 ], [ -99.416999, 73.895409 ], [ -97.659148, 74.07163 ] ] ], [ [ [ -100.227054, 73.889136 ], [ -99.157947, 73.73157 ], [ -97.111744, 73.790325 ], [ -97.001694, 73.666487 ], [ -97.625898, 73.502285 ], [ -97.272507, 73.386841 ], [ -98.430911, 72.958078 ], [ -97.636335, 73.027632 ], [ -97.128124, 72.627609 ], [ -96.542114, 72.698712 ], [ -96.472867, 72.434392 ], [ -96.801451, 72.322409 ], [ -96.592859, 72.204481 ], [ -96.766312, 72.045938 ], [ -96.613426, 71.833857 ], [ -97.582283, 71.629688 ], [ -98.322701, 71.852358 ], [ -98.458843, 71.773191 ], [ -98.198627, 71.440855 ], [ -99.167121, 71.367169 ], [ -100.594476, 72.15234 ], [ -101.723914, 72.314916 ], [ -102.70874, 72.764498 ], [ -102.203989, 73.077301 ], [ -101.273195, 72.721663 ], [ -100.128145, 72.906716 ], [ -100.536391, 73.197854 ], [ -99.825142, 73.21385 ], [ -101.523205, 73.486366 ], [ -100.521664, 73.44932 ], [ -100.985095, 73.76532 ], [ -99.991101, 73.795181 ], [ -100.227054, 73.889136 ] ] ], [ [ [ -86.589357, 71.010806 ], [ -84.823711, 71.028637 ], [ -84.699401, 71.631467 ], [ -85.911599, 71.986513 ], [ -85.321864, 72.233134 ], [ -84.283744, 72.044487 ], [ -85.649905, 72.722179 ], [ -85.262131, 72.954002 ], [ -84.25663, 72.796743 ], [ -85.454755, 73.105459 ], [ -83.410353, 73.631682 ], [ -81.605354, 73.696018 ], [ -80.277261, 72.770189 ], [ -81.229347, 72.311708 ], [ -80.611454, 72.450828 ], [ -80.94123, 72.210161 ], [ -80.691401, 72.103451 ], [ -80.925135, 71.907653 ], [ -79.884368, 72.177202 ], [ -80.108928, 72.332175 ], [ -79.831293, 72.446279 ], [ -79.000232, 72.272025 ], [ -79.007834, 72.042938 ], [ -78.585091, 71.880626 ], [ -78.862749, 72.100814 ], [ -78.69925, 72.351401 ], [ -77.516506, 72.177795 ], [ -78.422417, 72.571535 ], [ -76.893493, 72.720674 ], [ -75.071455, 72.322848 ], [ -75.922807, 71.717227 ], [ -75.147656, 72.062988 ], [ -74.266344, 72.037676 ], [ -74.315738, 71.84269 ], [ -75.204807, 71.709108 ], [ -74.700754, 71.675577 ], [ -74.99622, 71.218107 ], [ -74.488114, 71.648397 ], [ -73.866595, 71.771049 ], [ -73.713556, 71.719863 ], [ -74.197273, 71.404171 ], [ -73.712863, 71.587621 ], [ -73.18062, 71.282882 ], [ -73.278211, 71.538007 ], [ -72.90193, 71.677775 ], [ -71.640688, 71.516254 ], [ -71.186557, 71.278696 ], [ -72.632721, 70.830773 ], [ -70.672628, 71.052202 ], [ -70.761727, 70.792222 ], [ -71.890177, 70.431541 ], [ -71.275854, 70.500293 ], [ -71.429432, 70.127758 ], [ -70.979794, 70.581064 ], [ -70.084705, 70.829531 ], [ -68.495764, 70.610266 ], [ -68.48258, 70.414819 ], [ -70.057734, 70.042625 ], [ -68.778222, 70.203541 ], [ -69.00832, 69.978937 ], [ -68.744066, 69.941418 ], [ -67.855338, 70.281786 ], [ -67.192763, 69.756826 ], [ -68.020385, 69.770054 ], [ -69.250777, 69.51193 ], [ -66.676285, 69.258431 ], [ -66.802891, 69.152754 ], [ -67.93846, 69.248126 ], [ -69.040609, 69.098009 ], [ -67.751703, 69.038683 ], [ -67.883188, 68.783965 ], [ -69.319101, 68.856991 ], [ -66.713902, 68.445718 ], [ -67.032956, 68.326088 ], [ -66.923093, 68.065712 ], [ -66.212387, 68.280428 ], [ -66.526475, 67.85116 ], [ -65.942376, 68.070941 ], [ -65.509075, 67.968252 ], [ -65.401277, 67.67484 ], [ -65.415307, 67.879263 ], [ -64.976908, 68.043387 ], [ -65.021117, 67.787571 ], [ -63.850184, 67.566086 ], [ -64.007947, 67.347338 ], [ -64.589234, 67.315532 ], [ -63.040129, 67.235013 ], [ -63.701528, 66.822378 ], [ -62.123594, 67.046708 ], [ -61.299718, 66.64875 ], [ -62.12333, 66.643059 ], [ -61.57642, 66.412489 ], [ -61.86268, 66.312821 ], [ -62.553127, 66.406853 ], [ -61.991615, 66.035295 ], [ -62.624131, 66.016256 ], [ -62.382004, 65.83329 ], [ -62.658914, 65.639919 ], [ -63.458752, 65.853032 ], [ -63.651045, 65.661002 ], [ -63.337452, 65.616771 ], [ -63.363357, 65.229712 ], [ -63.606606, 64.928082 ], [ -64.345733, 65.172407 ], [ -64.269664, 65.400758 ], [ -64.555077, 65.116596 ], [ -65.401607, 65.763999 ], [ -64.445368, 66.317117 ], [ -65.825745, 65.996931 ], [ -65.656347, 66.204748 ], [ -66.063709, 66.132711 ], [ -66.986341, 66.627513 ], [ -67.307306, 66.569736 ], [ -67.22537, 66.310272 ], [ -67.883397, 66.467421 ], [ -67.183227, 66.034416 ], [ -67.350461, 65.92975 ], [ -68.459893, 66.249287 ], [ -68.748922, 66.200046 ], [ -68.217172, 66.078856 ], [ -67.866445, 65.773656 ], [ -67.936757, 65.564916 ], [ -67.117968, 65.440397 ], [ -67.336508, 65.346606 ], [ -66.697422, 64.815165 ], [ -66.635514, 65.000317 ], [ -66.214661, 64.722407 ], [ -65.938531, 64.885752 ], [ -65.43194, 64.726439 ], [ -65.274825, 64.631528 ], [ -65.529323, 64.504801 ], [ -65.074632, 64.436686 ], [ -65.580333, 64.293852 ], [ -64.678454, 64.027983 ], [ -64.798161, 63.915945 ], [ -64.410948, 63.706347 ], [ -64.664655, 63.245339 ], [ -65.191856, 63.764278 ], [ -65.068919, 63.263478 ], [ -64.672378, 62.921946 ], [ -65.162786, 62.932591 ], [ -65.10847, 62.626457 ], [ -66.654971, 63.264774 ], [ -66.697477, 63.069536 ], [ -67.893262, 63.733736 ], [ -67.722579, 63.422746 ], [ -68.911091, 63.703216 ], [ -65.980202, 62.208867 ], [ -66.058886, 61.91384 ], [ -66.323744, 61.870279 ], [ -71.347265, 63.06613 ], [ -71.99224, 63.416177 ], [ -71.380828, 63.580301 ], [ -72.498468, 63.823495 ], [ -73.454553, 64.399277 ], [ -73.271279, 64.582518 ], [ -74.064799, 64.424678 ], [ -74.681407, 64.830666 ], [ -74.919448, 64.765506 ], [ -74.694712, 64.496583 ], [ -76.856151, 64.237624 ], [ -78.174554, 64.61774 ], [ -78.055254, 64.982904 ], [ -77.360907, 65.196533 ], [ -77.326695, 65.453108 ], [ -75.828336, 65.227031 ], [ -75.452109, 64.84162 ], [ -75.357099, 65.008744 ], [ -75.798673, 65.297508 ], [ -73.550804, 65.485254 ], [ -74.416384, 66.167076 ], [ -72.22003, 67.254294 ], [ -73.284484, 68.35697 ], [ -73.820496, 68.362958 ], [ -73.851555, 68.701392 ], [ -74.422426, 68.579949 ], [ -74.910406, 68.823142 ], [ -74.854859, 69.065841 ], [ -76.585085, 68.698755 ], [ -76.557235, 69.009481 ], [ -75.647732, 69.212574 ], [ -76.520365, 69.516588 ], [ -76.234105, 69.662102 ], [ -77.089918, 69.635131 ], [ -76.85859, 69.775404 ], [ -77.591642, 69.845607 ], [ -77.774004, 70.2385 ], [ -79.06638, 70.603543 ], [ -79.405221, 70.400713 ], [ -78.809839, 70.178558 ], [ -79.09289, 69.925345 ], [ -81.651936, 70.094612 ], [ -80.921719, 69.730887 ], [ -81.564683, 69.942704 ], [ -85.780027, 70.036659 ], [ -86.322015, 70.145435 ], [ -86.396865, 70.465313 ], [ -87.900707, 70.251892 ], [ -88.848421, 70.522881 ], [ -89.45591, 71.061705 ], [ -87.140101, 71.011608 ], [ -89.693324, 71.423496 ], [ -90.025177, 71.948785 ], [ -89.663793, 72.157976 ], [ -89.816832, 72.467725 ], [ -88.705203, 73.403276 ], [ -86.768753, 73.833996 ], [ -85.009325, 73.778624 ], [ -86.667777, 72.762565 ], [ -86.322554, 72.460825 ], [ -86.21848, 71.899127 ], [ -85.023409, 71.353239 ], [ -86.589357, 71.010806 ] ] ], [ [ [ -80.860723, 73.670541 ], [ -77.206549, 73.49955 ], [ -76.089997, 72.881184 ], [ -79.500516, 72.755973 ], [ -80.776402, 73.334183 ], [ -80.860723, 73.670541 ] ] ], [ [ [ -105.288917, 72.919944 ], [ -106.180024, 73.304103 ], [ -106.949666, 73.510371 ], [ -105.512313, 73.765759 ], [ -104.587512, 73.578091 ], [ -104.621751, 73.311134 ], [ -105.288917, 72.919944 ] ] ], [ [ [ -96.59849, 73.073829 ], [ -97.092776, 72.996936 ], [ -97.06921, 73.130156 ], [ -96.59849, 73.073829 ] ] ], [ [ [ -100.276119, 70.594611 ], [ -100.620673, 70.546908 ], [ -100.678296, 70.64618 ], [ -100.276119, 70.594611 ] ] ], [ [ [ -87.107263, 70.146676 ], [ -86.515232, 70.017048 ], [ -87.323244, 70.080121 ], [ -87.107263, 70.146676 ] ] ], [ [ [ -98.080754, 69.833049 ], [ -96.299958, 69.344399 ], [ -95.751362, 68.897651 ], [ -95.267771, 68.826086 ], [ -96.598825, 68.460835 ], [ -99.564046, 69.034134 ], [ -98.503541, 69.308276 ], [ -98.54602, 69.572915 ], [ -98.041346, 69.456636 ], [ -98.304513, 69.669287 ], [ -98.080754, 69.833049 ] ] ], [ [ [ -79.430654, 69.787786 ], [ -79.97785, 69.509689 ], [ -80.794783, 69.689238 ], [ -80.424236, 69.797596 ], [ -79.430654, 69.787786 ] ] ], [ [ [ -78.578554, 69.6388 ], [ -78.039983, 69.608412 ], [ -78.848203, 69.482783 ], [ -78.578554, 69.6388 ] ] ], [ [ [ -67.754615, 69.631461 ], [ -68.202341, 69.580408 ], [ -68.221413, 69.616729 ], [ -67.754615, 69.631461 ] ] ], [ [ [ -95.513672, 69.57364 ], [ -95.496232, 69.350079 ], [ -95.763606, 69.559633 ], [ -95.985947, 69.391915 ], [ -95.87582, 69.605984 ], [ -95.513672, 69.57364 ] ] ], [ [ [ -101.000624, 69.461909 ], [ -101.268514, 69.390597 ], [ -101.351302, 69.559215 ], [ -101.000624, 69.461909 ] ] ], [ [ [ -76.668856, 69.366152 ], [ -77.321938, 69.193579 ], [ -77.340912, 69.403879 ], [ -76.668856, 69.366152 ] ] ], [ [ [ -90.322072, 69.42873 ], [ -90.295463, 69.257783 ], [ -90.492041, 69.369877 ], [ -90.322072, 69.42873 ] ] ], [ [ [ -78.22897, 69.303992 ], [ -79.40577, 68.923052 ], [ -78.650207, 69.351222 ], [ -78.22897, 69.303992 ] ] ], [ [ [ -90.599685, 69.367811 ], [ -90.574417, 69.209421 ], [ -90.7657, 69.335973 ], [ -90.599685, 69.367811 ] ] ], [ [ [ -100.153133, 69.129474 ], [ -100.141301, 68.969897 ], [ -100.247363, 69.052789 ], [ -100.153133, 69.129474 ] ] ], [ [ [ -100.217238, 68.806706 ], [ -100.596541, 68.766398 ], [ -100.611581, 68.990211 ], [ -100.329941, 68.99755 ], [ -100.217238, 68.806706 ] ] ], [ [ [ -101.82835, 68.79895 ], [ -101.88721, 68.584958 ], [ -102.308167, 68.681979 ], [ -101.82835, 68.79895 ] ] ], [ [ [ -74.880853, 68.348697 ], [ -75.310155, 68.47448 ], [ -75.396167, 68.588837 ], [ -74.98363, 68.647592 ], [ -74.880853, 68.348697 ] ] ], [ [ [ -104.540694, 68.405903 ], [ -104.85114, 68.453957 ], [ -105.05136, 68.55902 ], [ -104.602008, 68.561503 ], [ -104.540694, 68.405903 ] ] ], [ [ [ -78.828515, 68.26819 ], [ -79.174046, 68.234978 ], [ -79.153458, 68.335261 ], [ -78.828515, 68.26819 ] ] ], [ [ [ -76.740245, 68.231232 ], [ -75.078145, 68.173147 ], [ -75.201972, 67.459189 ], [ -76.693949, 67.235815 ], [ -77.224193, 67.508177 ], [ -77.228565, 67.850127 ], [ -76.740245, 68.231232 ] ] ] ] } },
{ "type": "Feature", "properties": { "name": "Ontario", "is_manitoba": false }, "geometry": { "type": "MultiPolygon", "coordinates": [ [ [ [ -95.155298, 49.369672 ], [ -95.153826, 52.822357 ], [ -88.948495, 56.851307 ], [ -87.482402, 56.021312 ], [ -85.676679, 55.601052 ], [ -85.217999, 55.34897 ], [ -85.365271, 55.079278 ], [ -85.06095, 55.285667 ], [ -83.910604, 55.31466 ], [ -82.39326, 55.067797 ], [ -82.219391, 54.813475 ], [ -82.424165, 54.244592 ], [ -82.141443, 53.817641 ], [ -82.29156, 53.030712 ], [ -81.59941, 52.432617 ], [ -81.827893, 52.224206 ], [ -80.657937, 51.758342 ], [ -80.443297, 51.388597 ], [ -80.85123, 51.125024 ], [ -80.265659, 51.316351 ], [ -79.519555, 50.918525 ], [ -79.559293, 47.483045 ], [ -79.364945, 47.02196 ], [ -78.781, 46.393443 ], [ -76.823708, 45.879678 ], [ -76.553126, 45.542079 ], [ -75.903966, 45.42023 ], [ -74.577224, 45.6322 ], [ -74.340446, 45.214445 ], [ -76.151158, 44.303942 ], [ -76.819962, 43.628788 ], [ -78.845566, 43.583338 ], [ -79.171849, 43.466575 ], [ -79.036695, 42.80232 ], [ -82.690012, 41.675177 ], [ -83.149669, 42.14192 ], [ -82.545322, 42.624682 ], [ -82.13785, 43.570879 ], [ -82.551079, 45.347357 ], [ -83.592693, 45.817155 ], [ -83.615951, 46.116829 ], [ -83.977786, 46.084914 ], [ -84.14948, 46.542769 ], [ -84.561753, 46.457372 ], [ -84.875973, 46.899901 ], [ -88.378195, 48.303097 ], [ -89.455646, 47.996216 ], [ -90.916048, 48.209153 ], [ -91.518307, 48.058311 ], [ -92.996254, 48.611813 ], [ -94.620885, 48.742605 ], [ -94.854333, 49.304589 ], [ -95.155298, 49.369672 ] ] ], [ [ [ -79.520467, 50.965986 ], [ -79.737458, 51.186283 ], [ -79.521346, 51.544712 ], [ -79.520357, 51.225889 ], [ -79.520467, 50.965986 ] ] ] ] } },
{ "type": "Feature", "properties": { "name": "Prince Edward Island", "is_manitoba": false }, "geometry": { "type": "Polygon", "coordinates": [ [ [ -64.087862, 46.775437 ], [ -63.681434, 46.561918 ], [ -62.023728, 46.421557 ], [ -62.804889, 45.973216 ], [ -63.022089, 46.066599 ], [ -62.978473, 46.316352 ], [ -63.568879, 46.209224 ], [ -64.403147, 46.691623 ], [ -63.993577, 47.061576 ], [ -64.087862, 46.775437 ] ] ] } },
{ "type": "Feature", "properties": { "name": "Québec", "is_manitoba": false }, "geometry": { "type": "MultiPolygon", "coordinates": [ [ [ [ -65.926721, 48.188839 ], [ -67.364853, 47.8548 ], [ -68.113516, 47.998567 ], [ -68.377913, 47.929375 ], [ -68.496016, 47.480309 ], [ -69.05366, 47.294585 ], [ -69.242878, 47.462995 ], [ -70.00768, 46.708937 ], [ -70.689788, 45.428338 ], [ -71.327292, 45.290108 ], [ -71.51752, 45.007561 ], [ -74.708873, 45.00387 ], [ -73.558088, 45.425086 ], [ -73.159559, 46.010031 ], [ -72.109288, 46.551217 ], [ -71.261176, 46.756266 ], [ -70.519489, 47.032528 ], [ -69.471053, 47.9673 ], [ -68.238211, 48.626436 ], [ -65.52339, 49.266137 ], [ -64.216226, 48.873661 ], [ -64.513736, 48.841098 ], [ -64.246076, 48.691112 ], [ -64.348831, 48.4232 ], [ -65.259422, 48.021254 ], [ -65.926721, 48.188839 ] ] ], [ [ [ -64.614272, 60.30598 ], [ -64.846688, 60.250763 ], [ -64.622303, 60.141317 ], [ -64.887271, 60.035409 ], [ -64.661469, 59.921513 ], [ -64.818024, 59.540244 ], [ -64.385295, 59.514766 ], [ -64.519493, 59.225793 ], [ -64.324364, 59.019964 ], [ -64.848313, 58.949223 ], [ -63.496709, 58.753447 ], [ -64.070811, 58.641694 ], [ -63.848008, 58.459738 ], [ -64.394589, 58.144332 ], [ -64.045466, 57.785255 ], [ -63.601255, 57.723061 ], [ -64.12148, 56.299409 ], [ -63.578305, 56.025574 ], [ -63.700572, 55.860911 ], [ -63.111825, 55.33983 ], [ -63.534019, 55.140351 ], [ -63.698825, 54.615194 ], [ -65.675804, 54.744931 ], [ -66.773986, 55.32825 ], [ -66.724449, 54.747974 ], [ -67.40815, 55.071785 ], [ -67.15018, 54.616666 ], [ -67.601421, 54.552791 ], [ -67.511323, 54.236176 ], [ -67.76147, 54.060735 ], [ -67.47353, 53.613317 ], [ -66.944439, 53.355139 ], [ -67.068024, 52.754922 ], [ -66.688348, 52.726885 ], [ -66.428038, 53.010816 ], [ -66.407438, 52.183688 ], [ -65.137133, 52.154695 ], [ -64.598012, 51.600369 ], [ -64.290516, 51.728777 ], [ -64.130676, 52.186688 ], [ -64.178477, 52.815325 ], [ -63.722544, 53.109188 ], [ -63.409687, 52.688719 ], [ -64.059418, 52.48512 ], [ -63.756899, 52.010522 ], [ -57.101029, 52.001117 ], [ -57.100128, 51.443342 ], [ -58.510377, 51.295059 ], [ -60.080203, 50.254577 ], [ -66.495527, 50.211873 ], [ -66.941176, 49.993696 ], [ -67.372005, 49.348457 ], [ -68.281926, 49.197154 ], [ -69.673883, 48.199178 ], [ -71.018247, 48.455599 ], [ -69.77499, 48.098103 ], [ -70.705861, 47.13981 ], [ -72.98102, 46.20974 ], [ -73.476591, 45.73824 ], [ -74.315101, 45.531071 ], [ -73.973855, 45.345138 ], [ -74.340446, 45.214445 ], [ -74.577224, 45.6322 ], [ -76.413446, 45.496343 ], [ -76.823708, 45.879678 ], [ -78.903168, 46.486464 ], [ -79.559293, 47.483045 ], [ -79.519555, 50.918525 ], [ -79.347894, 50.76264 ], [ -79.521346, 51.544712 ], [ -79.296961, 51.622792 ], [ -78.903168, 51.200291 ], [ -78.731363, 51.497482 ], [ -78.981632, 51.774568 ], [ -78.448103, 52.261362 ], [ -79.100361, 53.656625 ], [ -78.996024, 54.002497 ], [ -79.712344, 54.671806 ], [ -77.775278, 55.291248 ], [ -76.761822, 55.996428 ], [ -76.529824, 56.499964 ], [ -76.890912, 57.758129 ], [ -78.515097, 58.682365 ], [ -77.760677, 59.380041 ], [ -77.726158, 59.67587 ], [ -77.349074, 59.578949 ], [ -77.28921, 60.022016 ], [ -77.585907, 60.088165 ], [ -77.681455, 60.427115 ], [ -77.503553, 60.542713 ], [ -77.790802, 60.639865 ], [ -77.603012, 60.825172 ], [ -78.181377, 60.819129 ], [ -77.514364, 61.55629 ], [ -78.021383, 61.832091 ], [ -78.108581, 62.318104 ], [ -77.372431, 62.572514 ], [ -74.632573, 62.115692 ], [ -73.705052, 62.473143 ], [ -72.686949, 62.124558 ], [ -72.771621, 61.840407 ], [ -72.226127, 61.831574 ], [ -72.040041, 61.680271 ], [ -72.215866, 61.587271 ], [ -71.638304, 61.617165 ], [ -71.854394, 61.439813 ], [ -71.422719, 61.158958 ], [ -69.992442, 60.856494 ], [ -69.503353, 61.040405 ], [ -69.673751, 60.075871 ], [ -70.65483, 60.026235 ], [ -69.733934, 59.917998 ], [ -69.681892, 59.341732 ], [ -69.344029, 59.303104 ], [ -69.531664, 58.869221 ], [ -70.154348, 58.760599 ], [ -68.698176, 58.904542 ], [ -68.381143, 58.743493 ], [ -68.356545, 58.163217 ], [ -69.040795, 57.902512 ], [ -68.413597, 58.05175 ], [ -68.021033, 58.485315 ], [ -67.888253, 58.295767 ], [ -68.063847, 58.138981 ], [ -67.755933, 58.404598 ], [ -67.678271, 57.991138 ], [ -66.362427, 58.791163 ], [ -66.002405, 58.431218 ], [ -66.043044, 58.82065 ], [ -65.383545, 59.060218 ], [ -65.700018, 59.213313 ], [ -65.475073, 59.470327 ], [ -65.038245, 59.387896 ], [ -65.407419, 59.539343 ], [ -65.433412, 59.776505 ], [ -65.054472, 59.752785 ], [ -65.171729, 59.908022 ], [ -64.931227, 60.251982 ], [ -64.614272, 60.30598 ] ] ], [ [ [ -61.801134, 49.093904 ], [ -63.041524, 49.224949 ], [ -64.485204, 49.886985 ], [ -62.858536, 49.705491 ], [ -61.817152, 49.28355 ], [ -61.801134, 49.093904 ] ] ], [ [ [ -61.684086, 47.498755 ], [ -61.924687, 47.425169 ], [ -61.395519, 47.637666 ], [ -61.684086, 47.498755 ] ] ], [ [ [ -70.91347, 46.919512 ], [ -71.11664, 46.864844 ], [ -70.825799, 46.995373 ], [ -70.91347, 46.919512 ] ] ], [ [ [ -73.476075, 45.704754 ], [ -73.643562, 45.449113 ], [ -73.960539, 45.441411 ], [ -73.68743, 45.561404 ], [ -73.476075, 45.704754 ] ] ], [ [ [ -73.69534, 45.585486 ], [ -73.857707, 45.573599 ], [ -73.572348, 45.694471 ], [ -73.69534, 45.585486 ] ] ] ] } },
{ "type": "Feature", "properties": { "name": "Saskatchewan", "is_manitoba": false }, "geometry": { "type": "Polygon", "coordinates": [ [ [ -109.999432, 48.993083 ], [ -110.000025, 60.001087 ], [ -102.001649, 60.001087 ], [ -102.001105, 55.817526 ], [ -101.367271, 48.993138 ], [ -109.999432, 48.993083 ] ] ] } },
{ "type": "Feature", "properties": { "name": "Yukon", "is_manitoba": false }, "geometry": { "type": "MultiPolygon", "coordinates": [ [ [ [ -123.819157, 60.001087 ], [ -139.056519, 60.001582 ], [ -139.079258, 60.343707 ], [ -141.002137, 60.300245 ], [ -141.002137, 69.650786 ], [ -139.181524, 69.515555 ], [ -136.443756, 68.895124 ], [ -136.445437, 67.746592 ], [ -136.169251, 67.514231 ], [ -136.169306, 67.015243 ], [ -134.055581, 67.004487 ], [ -133.635194, 66.565649 ], [ -133.800121, 66.325587 ], [ -133.583157, 66.285102 ], [ -133.621632, 65.974629 ], [ -132.342746, 65.978968 ], [ -132.554848, 65.857009 ], [ -132.194689, 65.597655 ], [ -132.773234, 65.20341 ], [ -132.35259, 65.057248 ], [ -132.588104, 64.794082 ], [ -131.729006, 64.533816 ], [ -131.796808, 64.387906 ], [ -131.106718, 64.400903 ], [ -130.757726, 63.993047 ], [ -130.117916, 63.79337 ], [ -130.302607, 63.703711 ], [ -129.844938, 63.485786 ], [ -130.133604, 63.276452 ], [ -129.611775, 63.058681 ], [ -129.718667, 62.831671 ], [ -129.18945, 62.490293 ], [ -129.254714, 62.152771 ], [ -128.560829, 62.116911 ], [ -127.166598, 61.464521 ], [ -126.859277, 60.769416 ], [ -124.582597, 60.952822 ], [ -124.599444, 60.662135 ], [ -123.819157, 60.001087 ] ] ], [ [ [ -138.878856, 69.589702 ], [ -139.125741, 69.539319 ], [ -139.29139, 69.597876 ], [ -138.878856, 69.589702 ] ] ] ] } }
]
}
