{
"type": "FeatureCollection",
"name": "manitoba-urban",
"crs": { "type": "name", "properties": { "name": "urn:ogc:def:crs:OGC:1.3:CRS84" } },
"features": [
{ "type": "Feature", "properties": { }, "geometry": { "type": "Polygon", "coordinates": [ [ [ -101.872921, 54.76123 ], [ -101.889273, 54.7622 ], [ -101.909194, 54.778184 ], [ -101.931195, 54.774237 ], [ -101.931339, 54.789362 ], [ -101.912843, 54.798615 ], [ -101.831286, 54.800476 ], [ -101.834517, 54.792261 ], [ -101.872921, 54.76123 ] ] ] } },
{ "type": "Feature", "properties": { }, "geometry": { "type": "Polygon", "coordinates": [ [ [ -101.249169, 53.832917 ], [ -101.231427, 53.833963 ], [ -101.230814, 53.822864 ], [ -101.238104, 53.810988 ], [ -101.253665, 53.800552 ], [ -101.253707, 53.81165 ], [ -101.276389, 53.821065 ], [ -101.287218, 53.831258 ], [ -101.287103, 53.845021 ], [ -101.249169, 53.832917 ] ] ] } },
{ "type": "Feature", "properties": { }, "geometry": { "type": "Polygon", "coordinates": [ [ [ -99.973045, 49.826308 ], [ -100.005501, 49.838407 ], [ -100.020542, 49.867887 ], [ -99.945305, 49.868146 ], [ -99.931631, 49.856778 ], [ -99.942184, 49.832275 ], [ -99.973045, 49.826308 ] ] ] } },
{ "type": "Feature", "properties": { }, "geometry": { "type": "Polygon", "coordinates": [ [ [ -97.884276, 55.722524 ], [ -97.909732, 55.733655 ], [ -97.905265, 55.748615 ], [ -97.874244, 55.756423 ], [ -97.865366, 55.766948 ], [ -97.846467, 55.751972 ], [ -97.857954, 55.732862 ], [ -97.884276, 55.722524 ] ] ] } },
{ "type": "Feature", "properties": { }, "geometry": { "type": "Polygon", "coordinates": [ [ [ -97.054249, 49.956698 ], [ -97.046294, 49.937494 ], [ -97.054239, 49.934481 ], [ -97.048865, 49.920599 ], [ -97.036316, 49.913727 ], [ -96.998756, 49.912305 ], [ -97.002917, 49.888949 ], [ -97.015817, 49.881704 ], [ -97.054302, 49.890029 ], [ -97.063196, 49.887823 ], [ -97.063681, 49.873668 ], [ -97.054252, 49.867852 ], [ -97.056125, 49.861352 ], [ -97.065387, 49.856727 ], [ -97.065395, 49.834503 ], [ -97.087656, 49.834486 ], [ -97.151686, 49.7873 ], [ -97.154281, 49.778923 ], [ -97.162348, 49.781785 ], [ -97.165416, 49.812275 ], [ -97.179345, 49.814272 ], [ -97.218742, 49.806758 ], [ -97.221035, 49.801164 ], [ -97.239155, 49.814307 ], [ -97.232186, 49.845641 ], [ -97.270581, 49.843764 ], [ -97.299039, 49.848943 ], [ -97.343159, 49.879004 ], [ -97.332041, 49.901226 ], [ -97.309894, 49.89012 ], [ -97.287607, 49.907428 ], [ -97.275161, 49.906158 ], [ -97.243188, 49.890124 ], [ -97.221067, 49.901219 ], [ -97.221553, 49.917371 ], [ -97.254292, 49.934518 ], [ -97.246489, 49.95279 ], [ -97.232315, 49.954254 ], [ -97.209799, 49.945668 ], [ -97.202103, 49.952441 ], [ -97.20649, 49.965204 ], [ -97.198739, 49.978961 ], [ -97.143936, 49.960431 ], [ -97.116314, 49.95821 ], [ -97.087691, 49.967849 ], [ -97.067241, 49.981393 ], [ -97.054292, 50.001203 ], [ -97.041532, 49.99535 ], [ -97.054249, 49.956698 ] ] ] } }
]
}
