{
"type": "FeatureCollection",
"name": "manitoba-lakes",
"crs": { "type": "name", "properties": { "name": "urn:ogc:def:crs:OGC:1.3:CRS84" } },
"features": [
{ "type": "Feature", "properties": { "name": "Lake Winnipeg" }, "geometry": { "type": "Polygon", "coordinates": [ [ [ -96.263394, 51.222416 ], [ -96.263836, 51.204754 ], [ -96.335661, 51.196217 ], [ -96.362154, 51.164426 ], [ -96.308285, 51.117328 ], [ -96.384084, 51.121449 ], [ -96.419996, 51.101138 ], [ -96.390854, 51.009002 ], [ -96.349937, 50.77616 ], [ -96.350085, 50.752905 ], [ -96.379963, 50.713754 ], [ -96.294008, 50.623973 ], [ -96.424264, 50.630155 ], [ -96.479899, 50.662241 ], [ -96.520227, 50.731711 ], [ -96.53524, 50.732888 ], [ -96.561585, 50.71346 ], [ -96.558053, 50.670483 ], [ -96.59735, 50.661358 ], [ -96.581896, 50.583057 ], [ -96.616043, 50.541846 ], [ -96.566589, 50.481207 ], [ -96.568208, 50.465017 ], [ -96.605446, 50.42881 ], [ -96.650483, 50.399962 ], [ -96.708914, 50.387893 ], [ -96.769995, 50.387893 ], [ -96.917766, 50.42881 ], [ -96.969574, 50.558919 ], [ -96.938224, 50.603368 ], [ -96.972959, 50.623973 ], [ -96.986647, 50.702863 ], [ -96.972959, 50.780869 ], [ -96.94573, 50.828851 ], [ -96.976933, 50.888018 ], [ -96.91026, 50.997521 ], [ -96.93896, 51.025192 ], [ -96.944111, 51.048741 ], [ -96.924536, 51.062576 ], [ -96.920709, 51.093778 ], [ -96.869049, 51.096428 ], [ -96.844764, 51.113501 ], [ -96.828426, 51.172079 ], [ -96.756307, 51.237134 ], [ -96.671383, 51.261272 ], [ -96.611922, 51.34546 ], [ -96.630172, 51.35223 ], [ -96.688309, 51.33604 ], [ -96.705529, 51.343105 ], [ -96.698465, 51.362533 ], [ -96.734377, 51.367243 ], [ -96.773675, 51.343105 ], [ -96.798254, 51.293357 ], [ -96.893481, 51.212113 ], [ -96.951912, 51.186209 ], [ -96.982232, 51.189152 ], [ -96.988708, 51.210052 ], [ -96.979141, 51.26451 ], [ -96.907757, 51.327504 ], [ -96.932043, 51.343105 ], [ -96.870079, 51.41493 ], [ -96.826955, 51.437007 ], [ -96.802081, 51.489109 ], [ -96.761753, 51.511187 ], [ -96.744974, 51.53503 ], [ -96.725988, 51.582717 ], [ -96.733641, 51.612742 ], [ -96.778973, 51.59979 ], [ -96.801639, 51.610682 ], [ -96.775146, 51.6463 ], [ -96.78177, 51.669849 ], [ -96.828426, 51.678386 ], [ -96.825483, 51.721068 ], [ -96.855655, 51.73402 ], [ -96.898779, 51.725189 ], [ -96.97134, 51.682801 ], [ -97.095856, 51.659252 ], [ -97.089527, 51.642179 ], [ -97.101302, 51.620985 ], [ -97.137509, 51.590371 ], [ -97.120141, 51.518251 ], [ -97.203593, 51.453491 ], [ -97.238181, 51.437301 ], [ -97.269089, 51.440245 ], [ -97.287782, 51.473508 ], [ -97.274682, 51.545922 ], [ -97.301469, 51.580068 ], [ -97.296171, 51.644534 ], [ -97.221255, 51.807023 ], [ -97.239947, 51.870311 ], [ -97.336057, 52.008073 ], [ -97.335321, 52.03957 ], [ -97.371823, 52.052817 ], [ -97.420834, 52.040748 ], [ -97.521065, 51.987468 ], [ -97.538727, 51.925063 ], [ -97.584353, 51.923591 ], [ -97.568899, 51.967157 ], [ -97.610405, 51.994238 ], [ -97.585825, 52.022792 ], [ -97.541229, 52.038099 ], [ -97.479413, 52.130823 ], [ -97.548294, 52.138477 ], [ -97.651321, 52.10433 ], [ -97.671632, 52.113161 ], [ -97.689441, 52.148485 ], [ -97.760678, 52.130823 ], [ -97.778487, 52.101681 ], [ -97.763474, 52.086963 ], [ -97.712255, 52.083725 ], [ -97.774218, 52.001892 ], [ -97.778487, 51.964508 ], [ -97.805274, 51.929184 ], [ -97.805421, 51.913583 ], [ -97.75376, 51.870311 ], [ -97.780253, 51.863246 ], [ -97.87754, 51.888562 ], [ -97.928759, 51.912111 ], [ -97.91831, 51.925357 ], [ -97.93082, 51.932127 ], [ -97.962611, 51.925357 ], [ -98.032228, 51.945963 ], [ -98.048566, 52.086963 ], [ -98.059899, 52.109923 ], [ -98.137464, 52.138477 ], [ -98.132312, 52.19264 ], [ -98.144823, 52.234439 ], [ -98.202371, 52.295373 ], [ -98.324974, 52.320688 ], [ -98.416226, 52.364843 ], [ -98.466416, 52.432546 ], [ -98.470095, 52.504077 ], [ -98.609182, 52.578257 ], [ -98.661873, 52.635658 ], [ -98.720157, 52.652436 ], [ -98.737819, 52.676574 ], [ -98.802138, 52.713664 ], [ -98.829514, 52.758408 ], [ -98.816856, 52.791082 ], [ -98.891477, 52.844068 ], [ -98.908403, 52.892932 ], [ -98.890594, 52.923546 ], [ -98.733109, 52.978592 ], [ -98.52205, 53.005085 ], [ -98.445957, 53.040997 ], [ -98.43904, 53.056304 ], [ -98.696608, 53.071611 ], [ -98.781679, 53.091039 ], [ -98.819211, 53.039231 ], [ -98.83702, 53.032461 ], [ -98.925329, 53.06955 ], [ -99.011872, 53.040408 ], [ -99.042339, 53.050122 ], [ -99.083403, 53.118415 ], [ -99.138596, 53.138432 ], [ -99.164794, 53.169929 ], [ -99.192906, 53.174344 ], [ -99.206153, 53.191712 ], [ -99.25119, 53.19024 ], [ -99.252956, 53.20849 ], [ -99.206153, 53.268541 ], [ -99.226611, 53.275311 ], [ -99.206153, 53.302687 ], [ -99.213659, 53.323881 ], [ -99.193201, 53.378338 ], [ -99.144778, 53.412779 ], [ -99.093558, 53.430441 ], [ -99.07678, 53.458111 ], [ -99.072511, 53.474301 ], [ -99.087818, 53.487253 ], [ -99.027179, 53.579978 ], [ -99.056027, 53.60441 ], [ -98.973458, 53.700667 ], [ -99.010106, 53.771315 ], [ -99.004513, 53.786621 ], [ -98.954766, 53.814292 ], [ -98.961242, 53.85668 ], [ -98.923563, 53.879641 ], [ -98.833193, 53.899363 ], [ -98.744001, 53.889943 ], [ -98.705145, 53.871398 ], [ -98.69234, 53.837841 ], [ -98.65422, 53.850793 ], [ -98.376929, 53.857269 ], [ -98.276551, 53.840196 ], [ -98.066669, 53.765722 ], [ -98.04518, 53.752181 ], [ -98.013978, 53.700667 ], [ -97.989546, 53.691542 ], [ -97.885046, 53.70626 ], [ -97.87857, 53.720095 ], [ -97.904622, 53.749237 ], [ -98.031934, 53.777202 ], [ -98.090218, 53.837841 ], [ -98.241669, 53.885822 ], [ -98.27449, 53.920263 ], [ -98.288031, 53.976192 ], [ -98.31835, 53.992088 ], [ -98.279641, 54.062735 ], [ -98.232543, 54.094821 ], [ -98.205903, 54.178126 ], [ -98.149385, 54.234938 ], [ -98.15439, 54.25937 ], [ -98.106997, 54.312061 ], [ -98.038852, 54.356216 ], [ -98.030315, 54.408613 ], [ -97.993372, 54.413911 ], [ -97.911539, 54.362103 ], [ -97.9214, 54.344441 ], [ -97.993372, 54.324425 ], [ -97.979096, 54.312945 ], [ -97.798503, 54.317949 ], [ -97.822494, 54.284391 ], [ -97.886077, 54.24789 ], [ -98.149238, 54.186662 ], [ -98.157922, 54.12514 ], [ -98.17838, 54.08805 ], [ -98.151004, 54.05361 ], [ -98.233573, 54.015931 ], [ -98.099343, 53.928799 ], [ -98.068435, 53.926444 ], [ -98.03841, 53.943812 ], [ -98.048566, 53.967655 ], [ -98.031051, 53.988261 ], [ -97.910067, 54.04213 ], [ -97.836035, 54.025056 ], [ -97.771716, 54.078336 ], [ -97.736687, 54.090994 ], [ -97.725795, 54.050077 ], [ -97.773482, 54.001213 ], [ -97.890934, 53.981785 ], [ -97.968793, 53.984729 ], [ -97.98042, 53.964417 ], [ -97.963494, 53.927033 ], [ -97.93185, 53.899363 ], [ -97.956724, 53.874342 ], [ -97.954222, 53.862862 ], [ -97.901531, 53.834308 ], [ -97.881808, 53.778674 ], [ -97.815282, 53.721273 ], [ -97.821464, 53.708615 ], [ -97.808512, 53.690659 ], [ -97.83265, 53.614713 ], [ -97.792174, 53.575268 ], [ -97.719761, 53.536118 ], [ -97.665009, 53.481366 ], [ -97.672515, 53.411896 ], [ -97.591713, 53.366564 ], [ -97.579349, 53.336244 ], [ -97.589358, 53.299743 ], [ -97.558891, 53.265303 ], [ -97.516944, 53.247641 ], [ -97.418626, 53.173755 ], [ -97.446002, 53.141964 ], [ -97.418626, 53.111056 ], [ -97.426574, 53.088095 ], [ -97.409648, 53.048945 ], [ -97.332672, 53.01892 ], [ -97.338118, 53.001847 ], [ -97.383891, 52.987423 ], [ -97.390809, 52.9677 ], [ -97.435111, 52.963874 ], [ -97.435111, 52.947389 ], [ -97.377121, 52.899408 ], [ -97.405086, 52.872032 ], [ -97.35784, 52.83141 ], [ -97.308681, 52.754581 ], [ -97.241861, 52.723673 ], [ -97.197559, 52.684228 ], [ -97.198295, 52.63919 ], [ -97.151344, 52.588559 ], [ -97.103362, 52.487887 ], [ -97.098947, 52.440494 ], [ -97.04184, 52.421949 ], [ -97.031832, 52.405171 ], [ -97.05494, 52.385448 ], [ -97.027564, 52.354246 ], [ -97.068627, 52.330108 ], [ -97.000335, 52.27565 ], [ -97.009019, 52.250924 ], [ -97.089086, 52.240915 ], [ -97.036395, 52.19264 ], [ -97.011079, 52.140832 ], [ -96.951912, 52.097266 ], [ -96.965894, 52.080487 ], [ -96.959566, 52.070184 ], [ -96.869343, 52.014844 ], [ -96.825336, 51.967157 ], [ -96.820626, 51.95862 ], [ -96.86743, 51.892977 ], [ -96.863161, 51.867073 ], [ -96.787363, 51.864129 ], [ -96.715391, 51.826745 ], [ -96.680656, 51.778469 ], [ -96.75145, 51.762279 ], [ -96.787363, 51.768461 ], [ -96.7828, 51.75757 ], [ -96.54098, 51.542684 ], [ -96.579247, 51.494114 ], [ -96.542304, 51.479395 ], [ -96.479458, 51.391086 ], [ -96.455173, 51.386671 ], [ -96.445459, 51.359 ], [ -96.428533, 51.349581 ], [ -96.371279, 51.337806 ], [ -96.263394, 51.222416 ] ], [ [ -96.599411, 51.200044 ], [ -96.694049, 51.205637 ], [ -96.713919, 51.19239 ], [ -96.768376, 51.086125 ], [ -96.841673, 51.060515 ], [ -96.850062, 51.041676 ], [ -96.832106, 51.013417 ], [ -96.785596, 51.011651 ], [ -96.691841, 51.041676 ], [ -96.662405, 51.071112 ], [ -96.599411, 51.200044 ] ], [ [ -96.334925, 51.24096 ], [ -96.336397, 51.262449 ], [ -96.441632, 51.261272 ], [ -96.548486, 51.213585 ], [ -96.568208, 51.199161 ], [ -96.571299, 51.180321 ], [ -96.394092, 51.204459 ], [ -96.334925, 51.24096 ] ], [ [ -97.082904, 51.747267 ], [ -97.106012, 51.762868 ], [ -97.150166, 51.746678 ], [ -97.163413, 51.680152 ], [ -97.205212, 51.601557 ], [ -97.15885, 51.62069 ], [ -97.13324, 51.693987 ], [ -97.082904, 51.747267 ] ], [ [ -97.219342, 52.336878 ], [ -97.226259, 52.358072 ], [ -97.257756, 52.365137 ], [ -97.305149, 52.349536 ], [ -97.343858, 52.321277 ], [ -97.349745, 52.289191 ], [ -97.333114, 52.275945 ], [ -97.277773, 52.289191 ], [ -97.219342, 52.336878 ] ], [ [ -97.89844, 52.374557 ], [ -97.925227, 52.398989 ], [ -97.91831, 52.453741 ], [ -97.959226, 52.542344 ], [ -98.002498, 52.534985 ], [ -98.019276, 52.516735 ], [ -98.024869, 52.483766 ], [ -98.008385, 52.458451 ], [ -98.013978, 52.439317 ], [ -98.044592, 52.452563 ], [ -98.055483, 52.432546 ], [ -98.021779, 52.361605 ], [ -97.969676, 52.316861 ], [ -97.966144, 52.295962 ], [ -97.906535, 52.320394 ], [ -97.89844, 52.374557 ] ] ] } },
{ "type": "Feature", "properties": { "name": "Reindeer Lake" }, "geometry": { "type": "MultiPolygon", "coordinates": [ [ [ [ -101.515734, 57.928913 ], [ -101.550321, 57.899477 ], [ -101.525889, 57.880343 ], [ -101.544728, 57.816172 ], [ -101.58123, 57.781437 ], [ -101.629064, 57.767308 ], [ -101.669097, 57.703136 ], [ -101.724143, 57.687535 ], [ -101.725909, 57.645735 ], [ -101.749017, 57.637787 ], [ -101.762852, 57.607173 ], [ -101.829378, 57.571555 ], [ -101.890459, 57.557426 ], [ -101.934172, 57.503557 ], [ -102.001292555050213, 57.500028194746221 ], [ -102.001352821134574, 57.94306106478448 ], [ -101.975383, 57.943337 ], [ -101.870148, 57.994851 ], [ -101.855283, 58.120544 ], [ -101.786254, 58.160578 ], [ -101.770358, 58.155279 ], [ -101.773008, 58.137323 ], [ -101.834088, 58.063438 ], [ -101.770653, 57.947753 ], [ -101.790375, 57.927736 ], [ -101.837915, 57.915078 ], [ -101.844685, 57.887702 ], [ -101.940354, 57.81264 ], [ -101.933878, 57.784969 ], [ -101.906208, 57.784675 ], [ -101.835413, 57.851201 ], [ -101.803769, 57.846786 ], [ -101.810834, 57.832362 ], [ -101.780956, 57.81941 ], [ -101.707659, 57.880343 ], [ -101.736507, 57.911546 ], [ -101.716343, 57.935684 ], [ -101.669244, 57.894767 ], [ -101.628769, 57.897416 ], [ -101.59845, 57.928913 ], [ -101.576961, 57.913901 ], [ -101.515734, 57.928913 ] ] ], [ [ [ -101.997608, 57.336064 ], [ -101.95463, 57.346661 ], [ -101.940354, 57.311926 ], [ -101.893108, 57.311926 ], [ -101.872061, 57.298091 ], [ -101.844685, 57.305745 ], [ -101.824963, 57.27101 ], [ -101.908857, 57.235686 ], [ -101.926813, 57.264534 ], [ -102.001251410423919, 57.225250642589927 ], [ -101.997608, 57.336064 ] ] ], [ [ [ -102.001217301577782, 57.065823709301824 ], [ -101.988041, 57.027865 ], [ -101.951687, 57.041111 ], [ -101.956691, 56.988714 ], [ -102.001200030919591, 56.985099545818919 ], [ -102.001217301577782, 57.065823709301824 ] ] ], [ [ [ -102.001378846831926, 58.132487101019883 ], [ -101.951245, 58.124077 ], [ -102.001368919721244, 58.060233389594508 ], [ -102.001378846831926, 58.132487101019883 ] ] ], [ [ [ -102.001368332400745, 58.055958622497336 ], [ -101.998343, 58.040183 ], [ -102.001365808006682, 58.037585014477358 ], [ -102.001368332400745, 58.055958622497336 ] ] ] ] } },
{ "type": "Feature", "properties": { "name": "Lake Manitoba" }, "geometry": { "type": "Polygon", "coordinates": [ [ [ -97.936413, 50.396135 ], [ -97.940534, 50.33373 ], [ -98.050479, 50.288987 ], [ -98.172199, 50.219811 ], [ -98.317467, 50.18802 ], [ -98.417404, 50.186843 ], [ -98.513219, 50.21098 ], [ -98.55811, 50.254252 ], [ -98.576213, 50.312242 ], [ -98.565616, 50.352864 ], [ -98.516899, 50.39172 ], [ -98.51631, 50.415269 ], [ -98.536916, 50.459129 ], [ -98.589901, 50.514175 ], [ -98.598291, 50.569516 ], [ -98.620957, 50.575403 ], [ -98.645095, 50.644284 ], [ -98.694106, 50.702568 ], [ -98.707941, 50.75526 ], [ -98.802138, 50.843569 ], [ -98.853652, 50.873594 ], [ -98.843054, 50.909506 ], [ -98.849825, 50.948363 ], [ -98.829514, 50.966613 ], [ -98.851738, 50.976916 ], [ -98.891477, 50.959548 ], [ -98.912966, 50.966613 ], [ -98.973752, 51.060515 ], [ -99.010106, 51.076117 ], [ -99.018348, 51.093484 ], [ -99.014227, 51.151474 ], [ -98.986115, 51.161482 ], [ -98.941814, 51.107908 ], [ -98.89236, 51.079355 ], [ -98.898248, 51.031962 ], [ -98.887798, 51.02107 ], [ -98.845115, 51.021365 ], [ -98.838345, 51.030784 ], [ -98.850561, 51.055217 ], [ -98.781679, 51.103787 ], [ -98.794484, 51.118211 ], [ -98.853652, 51.093484 ], [ -98.85689, 51.12557 ], [ -98.875434, 51.136167 ], [ -98.845998, 51.226831 ], [ -98.851591, 51.263921 ], [ -98.926359, 51.23213 ], [ -98.93416, 51.224182 ], [ -98.917087, 51.194745 ], [ -98.934749, 51.184148 ], [ -98.992591, 51.228597 ], [ -99.021881, 51.289236 ], [ -99.065152, 51.282171 ], [ -99.111367, 51.373719 ], [ -99.101653, 51.415518 ], [ -99.116813, 51.456435 ], [ -99.112839, 51.499707 ], [ -99.161851, 51.555636 ], [ -99.189374, 51.549454 ], [ -99.213659, 51.562995 ], [ -99.261493, 51.52826 ], [ -99.284159, 51.567999 ], [ -99.275181, 51.590371 ], [ -99.309327, 51.644828 ], [ -99.327283, 51.645122 ], [ -99.351274, 51.623634 ], [ -99.398814, 51.652187 ], [ -99.463427, 51.639824 ], [ -99.47579, 51.600968 ], [ -99.498015, 51.586544 ], [ -99.487417, 51.555636 ], [ -99.506404, 51.501767 ], [ -99.518473, 51.502061 ], [ -99.556299, 51.607444 ], [ -99.549528, 51.644828 ], [ -99.522152, 51.672204 ], [ -99.561892, 51.682801 ], [ -99.548645, 51.719008 ], [ -99.481236, 51.788183 ], [ -99.445176, 51.807906 ], [ -99.350833, 51.765223 ], [ -99.325664, 51.765223 ], [ -99.316098, 51.782002 ], [ -99.243095, 51.63688 ], [ -99.213512, 51.633348 ], [ -99.135064, 51.656603 ], [ -99.191729, 51.758453 ], [ -99.185841, 51.788478 ], [ -99.159643, 51.794071 ], [ -99.129324, 51.731665 ], [ -99.108129, 51.713709 ], [ -99.077368, 51.718125 ], [ -99.042339, 51.700169 ], [ -99.056027, 51.651598 ], [ -99.032919, 51.626577 ], [ -99.024824, 51.566233 ], [ -98.993916, 51.522078 ], [ -98.982436, 51.455846 ], [ -98.884265, 51.339572 ], [ -98.879703, 51.383433 ], [ -98.910758, 51.503533 ], [ -98.912524, 51.580362 ], [ -98.968748, 51.623339 ], [ -98.992297, 51.665728 ], [ -98.946229, 51.713709 ], [ -98.897659, 51.700169 ], [ -98.852033, 51.725778 ], [ -98.83231, 51.715475 ], [ -98.775203, 51.613037 ], [ -98.72369, 51.579774 ], [ -98.774468, 51.527966 ], [ -98.766667, 51.471448 ], [ -98.809644, 51.41228 ], [ -98.776528, 51.39609 ], [ -98.733257, 51.312491 ], [ -98.692634, 51.29424 ], [ -98.661873, 51.302188 ], [ -98.56282, 51.290119 ], [ -98.576213, 51.247731 ], [ -98.556932, 51.220944 ], [ -98.588282, 51.19504 ], [ -98.627874, 51.192685 ], [ -98.655103, 51.171785 ], [ -98.658782, 51.123509 ], [ -98.64274, 51.10467 ], [ -98.682332, 51.079943 ], [ -98.720157, 51.103787 ], [ -98.740763, 51.082593 ], [ -98.698522, 51.074056 ], [ -98.696608, 51.056983 ], [ -98.73046, 51.035494 ], [ -98.765637, 51.04462 ], [ -98.774762, 51.035494 ], [ -98.773732, 51.00959 ], [ -98.754451, 50.994578 ], [ -98.774762, 50.972795 ], [ -98.733993, 50.95896 ], [ -98.755481, 50.925991 ], [ -98.702937, 50.890962 ], [ -98.576361, 50.897732 ], [ -98.478779, 50.873594 ], [ -98.44213, 50.843569 ], [ -98.390617, 50.83621 ], [ -98.31732, 50.767329 ], [ -98.28023, 50.753199 ], [ -98.281996, 50.739953 ], [ -98.257417, 50.718759 ], [ -98.217236, 50.710811 ], [ -98.201193, 50.679902 ], [ -98.116417, 50.616909 ], [ -98.110088, 50.583057 ], [ -98.077855, 50.554798 ], [ -98.082859, 50.541846 ], [ -97.971295, 50.481501 ], [ -97.936413, 50.396135 ] ] ] } },
{ "type": "Feature", "properties": { "name": "Lake Winnipegosis" }, "geometry": { "type": "Polygon", "coordinates": [ [ [ -99.609726, 51.675736 ], [ -99.610609, 51.617158 ], [ -99.65182, 51.616863 ], [ -99.665508, 51.603911 ], [ -99.715403, 51.623045 ], [ -99.729532, 51.591548 ], [ -99.778985, 51.575947 ], [ -99.802681, 51.582717 ], [ -99.802681, 51.603911 ], [ -99.854195, 51.641296 ], [ -99.940591, 51.692809 ], [ -99.940591, 51.764929 ], [ -99.960313, 51.795837 ], [ -99.939708, 51.812321 ], [ -99.912626, 51.802607 ], [ -99.909536, 51.827923 ], [ -99.885839, 51.850883 ], [ -99.943976, 51.926535 ], [ -99.933085, 51.970395 ], [ -99.96885, 52.040159 ], [ -100.000347, 52.054289 ], [ -100.029342, 52.028385 ], [ -100.001377, 51.96333 ], [ -99.997109, 51.910639 ], [ -99.974001, 51.895038 ], [ -99.966495, 51.83587 ], [ -100.001819, 51.810261 ], [ -99.980772, 51.764929 ], [ -100.007706, 51.715181 ], [ -100.046562, 51.723423 ], [ -100.049653, 51.782002 ], [ -100.070258, 51.795837 ], [ -100.090717, 51.850883 ], [ -100.145321, 51.918587 ], [ -100.125157, 51.92624 ], [ -100.111175, 51.973927 ], [ -100.159598, 52.025147 ], [ -100.15165, 52.132589 ], [ -100.173286, 52.206769 ], [ -100.153122, 52.22502 ], [ -100.180056, 52.285364 ], [ -100.174611, 52.308914 ], [ -100.115738, 52.399283 ], [ -100.015654, 52.443438 ], [ -100.006676, 52.49348 ], [ -100.029342, 52.507609 ], [ -99.980772, 52.556768 ], [ -100.005351, 52.597979 ], [ -100.053921, 52.604749 ], [ -100.069523, 52.620056 ], [ -100.070111, 52.635952 ], [ -100.054068, 52.643017 ], [ -100.060103, 52.695119 ], [ -100.039939, 52.753109 ], [ -100.05348, 52.804623 ], [ -100.108673, 52.809627 ], [ -100.138551, 52.795792 ], [ -100.194922, 52.823462 ], [ -100.197129, 52.85437 ], [ -100.222298, 52.862024 ], [ -100.240107, 52.894993 ], [ -100.265422, 52.899408 ], [ -100.302953, 52.837297 ], [ -100.362415, 52.813159 ], [ -100.371835, 52.782545 ], [ -100.304131, 52.800207 ], [ -100.264539, 52.778424 ], [ -100.282495, 52.727499 ], [ -100.255119, 52.672748 ], [ -100.22789, 52.665977 ], [ -100.226713, 52.648315 ], [ -100.262037, 52.603866 ], [ -100.292356, 52.628299 ], [ -100.282495, 52.659207 ], [ -100.347255, 52.643606 ], [ -100.365064, 52.659207 ], [ -100.354467, 52.687171 ], [ -100.323412, 52.713664 ], [ -100.429971, 52.744867 ], [ -100.435417, 52.798441 ], [ -100.405981, 52.844068 ], [ -100.450724, 52.874387 ], [ -100.432179, 52.923251 ], [ -100.410102, 52.943857 ], [ -100.420257, 52.960047 ], [ -100.458378, 52.972116 ], [ -100.510038, 52.947095 ], [ -100.55699, 52.972999 ], [ -100.543154, 53.001258 ], [ -100.563318, 53.008323 ], [ -100.604677, 52.987423 ], [ -100.634996, 53.001258 ], [ -100.728162, 52.974471 ], [ -100.705055, 52.949744 ], [ -100.59982, 52.903529 ], [ -100.597759, 52.857608 ], [ -100.680328, 52.830527 ], [ -100.662813, 52.817575 ], [ -100.657809, 52.794026 ], [ -100.673558, 52.754581 ], [ -100.718154, 52.764 ], [ -100.826774, 52.740746 ], [ -100.84944, 52.748694 ], [ -100.851059, 52.775186 ], [ -100.798221, 52.812571 ], [ -100.823683, 52.830527 ], [ -100.926564, 52.791082 ], [ -100.957619, 52.795792 ], [ -100.924062, 52.834059 ], [ -100.93304, 52.857608 ], [ -101.001921, 52.864673 ], [ -101.016492, 52.888222 ], [ -100.960857, 52.936792 ], [ -100.965714, 52.951216 ], [ -101.00928, 52.9677 ], [ -100.979402, 52.982124 ], [ -100.97116, 53.00479 ], [ -101.042838, 53.028339 ], [ -101.097736, 53.063074 ], [ -101.114515, 53.086624 ], [ -101.108039, 53.107818 ], [ -101.024145, 53.14844 ], [ -100.955706, 53.151089 ], [ -100.919352, 53.138432 ], [ -100.947316, 53.097221 ], [ -100.899482, 53.08368 ], [ -100.837371, 53.07691 ], [ -100.745677, 53.097809 ], [ -100.693133, 53.085446 ], [ -100.662666, 53.091039 ], [ -100.646182, 53.122536 ], [ -100.610858, 53.114588 ], [ -100.597759, 53.135194 ], [ -100.556106, 53.135194 ], [ -100.57053, 53.179937 ], [ -100.531527, 53.176405 ], [ -100.426439, 53.151972 ], [ -100.39141, 53.103108 ], [ -100.083946, 53.066312 ], [ -99.94324, 52.987423 ], [ -99.743661, 52.961813 ], [ -99.737774, 52.950333 ], [ -99.77192, 52.922957 ], [ -99.802681, 52.864673 ], [ -99.710398, 52.926489 ], [ -99.676105, 52.916187 ], [ -99.664919, 52.893226 ], [ -99.692884, 52.878214 ], [ -99.734389, 52.816692 ], [ -99.686702, 52.782545 ], [ -99.713342, 52.748399 ], [ -99.668746, 52.698946 ], [ -99.679196, 52.66951 ], [ -99.659326, 52.652436 ], [ -99.659326, 52.617407 ], [ -99.673014, 52.597685 ], [ -99.635483, 52.537046 ], [ -99.697593, 52.458451 ], [ -99.686702, 52.429308 ], [ -99.693178, 52.40988 ], [ -99.741307, 52.371024 ], [ -99.74896, 52.331285 ], [ -99.798855, 52.306264 ], [ -99.820049, 52.278594 ], [ -99.852723, 52.276828 ], [ -99.857875, 52.261227 ], [ -99.823729, 52.188813 ], [ -99.834326, 52.114928 ], [ -99.824023, 52.058998 ], [ -99.799002, 52.04899 ], [ -99.748813, 52.05841 ], [ -99.733212, 51.96333 ], [ -99.762206, 51.906518 ], [ -99.816958, 51.905635 ], [ -99.802681, 51.809966 ], [ -99.816958, 51.78524 ], [ -99.809599, 51.758158 ], [ -99.80224, 51.744029 ], [ -99.754553, 51.754626 ], [ -99.732476, 51.731077 ], [ -99.720112, 51.733726 ], [ -99.703628, 51.832927 ], [ -99.679196, 51.87767 ], [ -99.628859, 51.83587 ], [ -99.624591, 51.813204 ], [ -99.65182, 51.771699 ], [ -99.653586, 51.740202 ], [ -99.645638, 51.685745 ], [ -99.609726, 51.675736 ] ], [ [ -99.88893, 52.319511 ], [ -99.850516, 52.408997 ], [ -99.857875, 52.44697 ], [ -99.837416, 52.484355 ], [ -99.835945, 52.536751 ], [ -99.923076, 52.519384 ], [ -99.940591, 52.473463 ], [ -99.96782, 52.44697 ], [ -99.961491, 52.387509 ], [ -99.926903, 52.347475 ], [ -99.930877, 52.305676 ], [ -99.88893, 52.319511 ] ] ] } },
{ "type": "Feature", "properties": { "name": "Split Lake" }, "geometry": { "type": "Polygon", "coordinates": [ [ [ -96.028639, 56.159785 ], [ -96.050863, 56.119457 ], [ -96.122541, 56.112687 ], [ -96.061166, 56.088549 ], [ -96.082802, 56.07177 ], [ -96.177293, 56.072653 ], [ -96.227776, 56.096497 ], [ -96.487847, 56.091198 ], [ -96.554521, 56.064705 ], [ -96.568208, 56.109449 ], [ -96.559672, 56.136825 ], [ -96.581896, 56.140063 ], [ -96.435892, 56.167144 ], [ -96.29916, 56.159785 ], [ -96.273403, 56.168027 ], [ -96.266632, 56.188338 ], [ -96.204522, 56.211004 ], [ -96.19834, 56.241324 ], [ -96.165665, 56.263107 ], [ -96.08133, 56.25722 ], [ -95.944745, 56.298136 ], [ -95.835242, 56.290777 ], [ -95.92517, 56.260458 ], [ -95.965498, 56.224251 ], [ -96.108853, 56.219541 ], [ -96.122247, 56.185395 ], [ -96.042768, 56.175092 ], [ -96.028639, 56.159785 ] ] ] } },
{ "type": "Feature", "properties": { "name": "Island Lake" }, "geometry": { "type": "Polygon", "coordinates": [ [ [ -94.03285, 53.755124 ], [ -94.138527, 53.762189 ], [ -94.231988, 53.728043 ], [ -94.286592, 53.735402 ], [ -94.320002, 53.714797 ], [ -94.415818, 53.74541 ], [ -94.451142, 53.694485 ], [ -94.535035, 53.698312 ], [ -94.641742, 53.734225 ], [ -94.776414, 53.749237 ], [ -94.827928, 53.741584 ], [ -94.841616, 53.749237 ], [ -94.833815, 53.766016 ], [ -94.875173, 53.790154 ], [ -94.900341, 53.831659 ], [ -94.963924, 53.826361 ], [ -94.971283, 53.844611 ], [ -94.965249, 53.859918 ], [ -94.917267, 53.885528 ], [ -94.948175, 53.908783 ], [ -94.944202, 53.934981 ], [ -94.896809, 53.95382 ], [ -94.855156, 53.934981 ], [ -94.8294, 53.980019 ], [ -94.834109, 53.995326 ], [ -94.765964, 54.002979 ], [ -94.745947, 53.995326 ], [ -94.759047, 53.981785 ], [ -94.580809, 53.989144 ], [ -94.540481, 53.970893 ], [ -94.693698, 53.92144 ], [ -94.703412, 53.890826 ], [ -94.560351, 53.837841 ], [ -94.392122, 53.885528 ], [ -94.29351, 53.865217 ], [ -94.174439, 53.898774 ], [ -94.111593, 53.885528 ], [ -94.012392, 53.885528 ], [ -93.989432, 53.87287 ], [ -94.012392, 53.820768 ], [ -94.012392, 53.783089 ], [ -94.039326, 53.768665 ], [ -94.03285, 53.755124 ] ] ] } },
{ "type": "Feature", "properties": { "name": "Gods Lake" }, "geometry": { "type": "Polygon", "coordinates": [ [ [ -94.224776, 54.874297 ], [ -94.145003, 54.857813 ], [ -94.09187, 54.871059 ], [ -94.080537, 54.851925 ], [ -94.025785, 54.840445 ], [ -93.768364, 54.81984 ], [ -93.725387, 54.786576 ], [ -93.656064, 54.797468 ], [ -93.607641, 54.769503 ], [ -93.936593, 54.776862 ], [ -93.885374, 54.738595 ], [ -93.951606, 54.678545 ], [ -94.023283, 54.638217 ], [ -94.163106, 54.639689 ], [ -94.261424, 54.612607 ], [ -94.286592, 54.626148 ], [ -94.352088, 54.594062 ], [ -94.41935, 54.595828 ], [ -94.448345, 54.58111 ], [ -94.461886, 54.554912 ], [ -94.436865, 54.523709 ], [ -94.488673, 54.519882 ], [ -94.49824, 54.482204 ], [ -94.573597, 54.486031 ], [ -94.793046, 54.385947 ], [ -94.750804, 54.443053 ], [ -94.783184, 54.451001 ], [ -94.787158, 54.471312 ], [ -94.732407, 54.482204 ], [ -94.745947, 54.501926 ], [ -94.711212, 54.529597 ], [ -94.626141, 54.536661 ], [ -94.550931, 54.566392 ], [ -94.532239, 54.598478 ], [ -94.576246, 54.63439 ], [ -94.572125, 54.660589 ], [ -94.481167, 54.666181 ], [ -94.402719, 54.714752 ], [ -94.444224, 54.762439 ], [ -94.482344, 54.778923 ], [ -94.481461, 54.813658 ], [ -94.416407, 54.790109 ], [ -94.350028, 54.827493 ], [ -94.310436, 54.835735 ], [ -94.279822, 54.866349 ], [ -94.224776, 54.874297 ] ], [ [ -94.254801, 54.665298 ], [ -94.259363, 54.652641 ], [ -94.049776, 54.680017 ], [ -94.04698, 54.739478 ], [ -94.254801, 54.665298 ] ] ] } },
{ "type": "Feature", "properties": { "name": "Nueltin Lake" }, "geometry": { "type": "Polygon", "coordinates": [ [ [ -99.949864, 59.847873 ], [ -99.992546, 59.824324 ], [ -99.933085, 59.802541 ], [ -99.946037, 59.786351 ], [ -99.94324, 59.755148 ], [ -99.98033, 59.724535 ], [ -99.987101, 59.682735 ], [ -99.979594, 59.668311 ], [ -99.933085, 59.655359 ], [ -100.038909, 59.59472 ], [ -100.049653, 59.641818 ], [ -100.065107, 59.655359 ], [ -100.157096, 59.667134 ], [ -100.211848, 59.694509 ], [ -100.22112, 59.720708 ], [ -100.198601, 59.741313 ], [ -100.200515, 59.758681 ], [ -100.255119, 59.786351 ], [ -100.23157, 59.805779 ], [ -100.199043, 59.793416 ], [ -100.138109, 59.742491 ], [ -100.127218, 59.714821 ], [ -100.076734, 59.723946 ], [ -100.065401, 59.738075 ], [ -100.071289, 59.781347 ], [ -100.111175, 59.792533 ], [ -100.111617, 59.826679 ], [ -100.138551, 59.854055 ], [ -100.069964, 59.872305 ], [ -100.047445, 59.899093 ], [ -100.002113, 59.975627 ], [ -100.038266017212095, 60.000059 ], [ -99.628993881280167, 60.000059 ], [ -99.659032, 59.965913 ], [ -99.659326, 59.922936 ], [ -99.618851, 59.935005 ], [ -99.611639, 59.924114 ], [ -99.624591, 59.902625 ], [ -99.597215, 59.87466 ], [ -99.648729, 59.830506 ], [ -99.654911, 59.81461 ], [ -99.642989, 59.80519 ], [ -99.604722, 59.813138 ], [ -99.602955, 59.825796 ], [ -99.560567, 59.847579 ], [ -99.491539, 59.801658 ], [ -99.428986, 59.815788 ], [ -99.378208, 59.805779 ], [ -99.433402, 59.757503 ], [ -99.432813, 59.700397 ], [ -99.47373, 59.635637 ], [ -99.466959, 59.614442 ], [ -99.569987, 59.580296 ], [ -99.588679, 59.590305 ], [ -99.556299, 59.621507 ], [ -99.583527, 59.666839 ], [ -99.510084, 59.707462 ], [ -99.507876, 59.731305 ], [ -99.541728, 59.762802 ], [ -99.679049, 59.766629 ], [ -99.734389, 59.778992 ], [ -99.748077, 59.805779 ], [ -99.836681, 59.800481 ], [ -99.949864, 59.847873 ] ], [ [ -99.926903, 59.902625 ], [ -99.920427, 59.881725 ], [ -99.881424, 59.873777 ], [ -99.816958, 59.878487 ], [ -99.808716, 59.894677 ], [ -99.737627, 59.871128 ], [ -99.715991, 59.935005 ], [ -99.759116, 59.960909 ], [ -99.813279, 59.970917 ], [ -99.926903, 59.902625 ] ] ] } },
{ "type": "Feature", "properties": { "name": "Southern Indian Lake" }, "geometry": { "type": "Polygon", "coordinates": [ [ [ -97.986602, 57.366972 ], [ -98.147914, 57.332237 ], [ -98.164692, 57.291321 ], [ -98.152182, 57.236569 ], [ -98.24108, 57.154736 ], [ -98.217383, 57.137368 ], [ -98.213704, 57.124711 ], [ -98.22695, 57.114997 ], [ -98.289061, 57.105871 ], [ -98.300836, 57.088798 ], [ -98.329389, 57.080262 ], [ -98.390617, 57.079084 ], [ -98.425352, 57.09969 ], [ -98.5247, 57.079084 ], [ -98.585486, 57.082028 ], [ -98.602853, 57.06466 ], [ -98.596819, 57.042289 ], [ -98.645095, 57.004021 ], [ -98.648333, 56.979589 ], [ -98.746061, 56.953096 ], [ -98.768727, 56.921894 ], [ -98.760927, 56.899522 ], [ -98.809644, 56.863315 ], [ -98.791835, 56.835939 ], [ -98.799047, 56.832113 ], [ -98.863807, 56.845948 ], [ -98.925624, 56.818278 ], [ -98.946082, 56.822104 ], [ -98.990236, 56.846831 ], [ -98.980375, 56.860077 ], [ -99.001128, 56.873029 ], [ -99.060295, 56.881566 ], [ -99.091056, 56.860372 ], [ -99.107835, 56.792668 ], [ -99.138743, 56.795612 ], [ -99.205858, 56.765881 ], [ -99.210421, 56.731735 ], [ -99.245892, 56.713484 ], [ -99.304912, 56.737033 ], [ -99.362901, 56.74292 ], [ -99.384979, 56.722021 ], [ -99.460778, 56.744098 ], [ -99.576757, 56.736444 ], [ -99.563069, 56.702298 ], [ -99.507876, 56.702298 ], [ -99.576757, 56.674922 ], [ -99.528334, 56.654022 ], [ -99.560567, 56.632828 ], [ -99.634011, 56.646075 ], [ -99.624591, 56.698766 ], [ -99.634894, 56.70848 ], [ -99.68523, 56.707008 ], [ -99.741307, 56.736444 ], [ -99.734831, 56.758816 ], [ -99.638279, 56.736444 ], [ -99.572489, 56.759993 ], [ -99.569398, 56.777361 ], [ -99.50714, 56.781776 ], [ -99.487417, 56.805326 ], [ -99.525243, 56.825931 ], [ -99.53584, 56.860077 ], [ -99.481236, 56.832113 ], [ -99.447237, 56.830347 ], [ -99.391896, 56.908647 ], [ -99.383065, 56.932785 ], [ -99.397931, 56.963105 ], [ -99.325517, 57.004316 ], [ -99.265173, 56.979 ], [ -99.234853, 56.93043 ], [ -99.156552, 56.918361 ], [ -99.165236, 56.952213 ], [ -99.134916, 57.000489 ], [ -99.062797, 57.065249 ], [ -99.01511, 57.065249 ], [ -99.034833, 57.09969 ], [ -98.983466, 57.088504 ], [ -98.973311, 57.074669 ], [ -99.028651, 56.982827 ], [ -99.060737, 56.952802 ], [ -99.065594, 56.938673 ], [ -99.0522, 56.918361 ], [ -99.016141, 56.928075 ], [ -98.952999, 56.907764 ], [ -98.918853, 56.921894 ], [ -98.860275, 56.918361 ], [ -98.845851, 56.944265 ], [ -98.886179, 56.958101 ], [ -98.897659, 56.976645 ], [ -98.86366, 57.010203 ], [ -98.887798, 57.04847 ], [ -98.915615, 57.0626 ], [ -98.912966, 57.084677 ], [ -98.740027, 57.059656 ], [ -98.706028, 57.086443 ], [ -98.69234, 57.147965 ], [ -98.64274, 57.175047 ], [ -98.637735, 57.19889 ], [ -98.668055, 57.223911 ], [ -98.632143, 57.234214 ], [ -98.625078, 57.253053 ], [ -98.682626, 57.27101 ], [ -98.767992, 57.257175 ], [ -98.884118, 57.27778 ], [ -98.603442, 57.27778 ], [ -98.540742, 57.26159 ], [ -98.507479, 57.274248 ], [ -98.478484, 57.310454 ], [ -98.479956, 57.325467 ], [ -98.499384, 57.327528 ], [ -98.535738, 57.314281 ], [ -98.535297, 57.339891 ], [ -98.514691, 57.366972 ], [ -98.53824, 57.40524 ], [ -98.52102, 57.462641 ], [ -98.575036, 57.516215 ], [ -98.624195, 57.529756 ], [ -98.602706, 57.56714 ], [ -98.603442, 57.593044 ], [ -98.552664, 57.625718 ], [ -98.531323, 57.628956 ], [ -98.514691, 57.599814 ], [ -98.559435, 57.58804 ], [ -98.576213, 57.558898 ], [ -98.562378, 57.543591 ], [ -98.509834, 57.547712 ], [ -98.514691, 57.517981 ], [ -98.464355, 57.56037 ], [ -98.397681, 57.569495 ], [ -98.356618, 57.64132 ], [ -98.329683, 57.656921 ], [ -98.146, 57.680176 ], [ -98.117005, 57.668107 ], [ -98.185887, 57.633961 ], [ -98.260361, 57.621009 ], [ -98.199427, 57.608351 ], [ -98.192657, 57.589512 ], [ -98.250499, 57.52063 ], [ -98.315554, 57.517981 ], [ -98.390617, 57.490017 ], [ -98.365154, 57.475298 ], [ -98.254768, 57.482952 ], [ -98.288178, 57.462641 ], [ -98.243582, 57.438503 ], [ -98.234162, 57.422018 ], [ -98.247261, 57.401119 ], [ -98.20973, 57.387578 ], [ -98.079327, 57.380807 ], [ -98.031051, 57.409949 ], [ -97.993814, 57.410833 ], [ -97.986602, 57.366972 ] ], [ [ -98.328947, 57.149732 ], [ -98.341164, 57.168865 ], [ -98.418581, 57.181523 ], [ -98.500415, 57.174753 ], [ -98.579304, 57.195652 ], [ -98.617866, 57.184761 ], [ -98.623753, 57.167393 ], [ -98.528232, 57.11588 ], [ -98.473186, 57.133542 ], [ -98.36692, 57.135308 ], [ -98.328947, 57.149732 ] ] ] } },
{ "type": "Feature", "properties": { "name": "Cedar Lake" }, "geometry": { "type": "Polygon", "coordinates": [ [ [ -100.195363, 53.592341 ], [ -100.173139, 53.598228 ], [ -100.193597, 53.61118 ], [ -100.153858, 53.615596 ], [ -100.070406, 53.573796 ], [ -100.054804, 53.553191 ], [ -100.017273, 53.560844 ], [ -99.960313, 53.501971 ], [ -99.964582, 53.459583 ], [ -99.980772, 53.447514 ], [ -99.886722, 53.41484 ], [ -99.915864, 53.36833 ], [ -99.97827, 53.361265 ], [ -99.986953, 53.348019 ], [ -99.976798, 53.333889 ], [ -99.90512, 53.309752 ], [ -99.9297, 53.286202 ], [ -99.918072, 53.26177 ], [ -99.886428, 53.24087 ], [ -99.850516, 53.228213 ], [ -99.792673, 53.229979 ], [ -99.761029, 53.282964 ], [ -99.769271, 53.299449 ], [ -99.743956, 53.31505 ], [ -99.67743, 53.295033 ], [ -99.525243, 53.309752 ], [ -99.455185, 53.353612 ], [ -99.392779, 53.367153 ], [ -99.371291, 53.348019 ], [ -99.405437, 53.302687 ], [ -99.39116, 53.296505 ], [ -99.410736, 53.270601 ], [ -99.397931, 53.228213 ], [ -99.418389, 53.207313 ], [ -99.412207, 53.193478 ], [ -99.364815, 53.193772 ], [ -99.330374, 53.159331 ], [ -99.436492, 53.148734 ], [ -99.44709, 53.130484 ], [ -99.384832, 53.111056 ], [ -99.375706, 53.095454 ], [ -99.39852, 53.057482 ], [ -99.422216, 53.050122 ], [ -99.545849, 53.047767 ], [ -99.563069, 53.066901 ], [ -99.559242, 53.080442 ], [ -99.512438, 53.08574 ], [ -99.507876, 53.104874 ], [ -99.591034, 53.104874 ], [ -99.569251, 53.131956 ], [ -99.609137, 53.194655 ], [ -99.63195, 53.201131 ], [ -99.654911, 53.196127 ], [ -99.665361, 53.176699 ], [ -99.617674, 53.151972 ], [ -99.694355, 53.141081 ], [ -99.727913, 53.123419 ], [ -99.732476, 53.148734 ], [ -99.768388, 53.159331 ], [ -99.862732, 53.092216 ], [ -99.940444, 53.08368 ], [ -100.313256, 53.169046 ], [ -100.378605, 53.228213 ], [ -100.381696, 53.272073 ], [ -100.409513, 53.287674 ], [ -100.418491, 53.310046 ], [ -100.498558, 53.276194 ], [ -100.523138, 53.276783 ], [ -100.609386, 53.335067 ], [ -100.6113, 53.351846 ], [ -100.689748, 53.355967 ], [ -100.931274, 53.451635 ], [ -100.914053, 53.478422 ], [ -100.80661, 53.529347 ], [ -100.733019, 53.524932 ], [ -100.689012, 53.48637 ], [ -100.673411, 53.481366 ], [ -100.64471, 53.501088 ], [ -100.625576, 53.473712 ], [ -100.589664, 53.472535 ], [ -100.58363, 53.537884 ], [ -100.616304, 53.536118 ], [ -100.676796, 53.565554 ], [ -100.653099, 53.587337 ], [ -100.576712, 53.590869 ], [ -100.512982, 53.552308 ], [ -100.477953, 53.567615 ], [ -100.453668, 53.60441 ], [ -100.405981, 53.618245 ], [ -100.386406, 53.606765 ], [ -100.354173, 53.614124 ], [ -100.310312, 53.590869 ], [ -100.285586, 53.630314 ], [ -100.195363, 53.592341 ] ], [ [ -100.096898, 53.385403 ], [ -100.183, 53.382165 ], [ -100.210523, 53.354789 ], [ -100.282495, 53.351846 ], [ -100.32974, 53.323881 ], [ -100.262184, 53.323587 ], [ -100.190359, 53.345664 ], [ -100.135166, 53.337716 ], [ -100.096898, 53.385403 ] ] ] } },
{ "type": "Feature", "properties": { "name": "Sipiwesk Lac" }, "geometry": { "type": "Polygon", "coordinates": [ [ [ -97.363286, 55.188383 ], [ -97.301322, 55.174254 ], [ -97.460573, 55.115381 ], [ -97.583323, 55.09978 ], [ -97.67178, 55.05798 ], [ -97.63572, 55.050032 ], [ -97.468521, 55.092126 ], [ -97.280717, 55.072993 ], [ -97.266146, 55.06475 ], [ -97.274535, 55.050621 ], [ -97.513559, 55.016475 ], [ -97.445855, 55.036492 ], [ -97.450418, 55.048855 ], [ -97.471318, 55.050915 ], [ -97.604665, 55.003817 ], [ -97.643962, 55.009704 ], [ -97.630274, 55.03031 ], [ -97.659711, 55.028249 ], [ -97.749197, 54.976736 ], [ -97.829412, 54.948182 ], [ -97.945538, 54.948182 ], [ -97.856199, 55.009704 ], [ -97.980273, 54.995575 ], [ -97.951131, 55.01412 ], [ -97.785698, 55.047677 ], [ -97.684879, 55.092126 ], [ -97.653087, 55.162774 ], [ -97.578172, 55.201924 ], [ -97.458954, 55.221941 ], [ -97.506641, 55.194565 ], [ -97.47853, 55.189855 ], [ -97.387129, 55.221941 ], [ -97.254077, 55.235482 ], [ -97.363286, 55.188383 ] ] ] } }
]
}
