{
"type": "FeatureCollection",
"name": "manitoba-roads",
"crs": { "type": "name", "properties": { "name": "urn:ogc:def:crs:OGC:1.3:CRS84" } },
"features": [
{ "type": "Feature", "properties": { "name": "373", "type": "Secondary Highway" }, "geometry": { "type": "LineString", "coordinates": [ [ -97.820653, 53.965149 ], [ -97.744243, 54.008564 ], [ -97.73035, 54.02593 ], [ -97.726877, 54.060662 ], [ -97.714721, 54.081501 ], [ -97.648731, 54.116233 ], [ -97.598369, 54.161384 ], [ -97.575794, 54.210009 ], [ -97.581003, 54.239531 ], [ -97.598369, 54.256897 ], [ -97.686936, 54.279473 ], [ -97.864068, 54.390615 ], [ -97.968264, 54.437503 ], [ -97.978683, 54.456605 ], [ -97.989103, 54.524332 ], [ -98.098508, 54.520859 ], [ -98.188811, 54.548645 ], [ -98.204441, 54.58685 ], [ -98.22528, 54.604216 ], [ -98.313846, 54.611162 ], [ -98.320793, 54.619845 ], [ -98.319056, 54.638948 ], [ -98.289534, 54.670206 ], [ -98.289534, 54.689309 ], [ -98.38331, 54.81087 ], [ -98.404149, 54.8265 ], [ -98.532657, 54.83171 ], [ -98.649009, 54.800451 ], [ -98.812249, 54.802187 ] ] } },
{ "type": "Feature", "properties": { "name": "29", "type": "Major Highway" }, "geometry": { "type": "LineString", "coordinates": [ [ -97.255652553157532, 48.94828404280004 ], [ -97.245841, 49.034957 ] ] } },
{ "type": "Feature", "properties": { "name": "39", "type": "Secondary Highway" }, "geometry": { "type": "LineString", "coordinates": [ [ -99.11268, 54.659787 ], [ -99.350593, 54.642421 ], [ -99.465208, 54.585113 ], [ -99.612819, 54.590323 ], [ -99.706595, 54.555591 ], [ -99.730907, 54.560801 ], [ -99.776059, 54.593796 ], [ -99.90804, 54.640684 ], [ -99.932352, 54.642421 ], [ -100.005289, 54.640684 ], [ -100.267515, 54.611162 ], [ -100.314403, 54.599006 ], [ -100.38213, 54.562537 ], [ -100.430755, 54.557328 ], [ -100.604414, 54.564274 ], [ -100.687771, 54.599006 ], [ -100.786757, 54.585113 ], [ -100.930894, 54.583377 ], [ -101.000358, 54.569484 ], [ -101.205276, 54.470498 ], [ -101.326838, 54.453132 ], [ -101.363306, 54.435766 ] ] } },
{ "type": "Feature", "properties": { "name": "1", "type": "Secondary Highway" }, "geometry": { "type": "LineString", "coordinates": [ [ -98.45972, 49.990084 ], [ -98.54655, 49.976191 ], [ -98.923391, 49.951879 ], [ -99.103997, 49.915411 ], [ -99.326281, 49.889362 ], [ -99.558984, 49.917147 ], [ -99.781269, 49.892835 ], [ -99.921933, 49.889362 ] ] } },
{ "type": "Feature", "properties": { "name": null, "type": "Secondary Highway" }, "geometry": { "type": "LineString", "coordinates": [ [ -100.057387, 51.157076 ], [ -100.057387, 51.038987 ], [ -100.036548, 50.950421 ], [ -100.078226, 50.891377 ], [ -100.079963, 50.874011 ], [ -100.015709, 50.81844 ], [ -99.99487, 50.695141 ], [ -99.939299, 50.6552 ], [ -99.937562, 50.643044 ], [ -99.953191, 50.632624 ], [ -99.961874, 50.606575 ], [ -99.944508, 50.519745 ] ] } },
{ "type": "Feature", "properties": { "name": "1", "type": "Secondary Highway" }, "geometry": { "type": "LineString", "coordinates": [ [ -97.34309, 49.904991 ], [ -97.417763, 49.882415 ], [ -97.548008, 49.877205 ], [ -97.679989, 49.894571 ], [ -98.152343, 49.99703 ], [ -98.275641, 50.00224 ], [ -98.45972, 49.990084 ] ] } },
{ "type": "Feature", "properties": { "name": "2", "type": "Secondary Highway" }, "geometry": { "type": "LineString", "coordinates": [ [ -99.951455, 49.587194 ], [ -99.817737, 49.590667 ], [ -99.454789, 49.566355 ], [ -98.999801, 49.569828 ], [ -98.820932, 49.61498 ], [ -98.661165, 49.639292 ], [ -98.371154, 49.670551 ], [ -98.046411, 49.68618 ], [ -97.662623, 49.766063 ], [ -97.443812, 49.783429 ], [ -97.270153, 49.84421 ] ] } },
{ "type": "Feature", "properties": { "name": "75", "type": "Secondary Highway" }, "geometry": { "type": "LineString", "coordinates": [ [ -97.16943, 49.904991 ], [ -97.164221, 49.800795 ], [ -97.152065, 49.7678 ], [ -97.110386, 49.713966 ], [ -97.105176, 49.689653 ], [ -97.110386, 49.665341 ], [ -97.176377, 49.547253 ], [ -97.278836, 49.467369 ], [ -97.372612, 49.349281 ], [ -97.355246, 49.304129 ], [ -97.346563, 49.236402 ], [ -97.317041, 49.13047 ], [ -97.25105, 49.041904 ], [ -97.249314, 49.026274 ], [ -97.259733, 49.012381 ] ] } },
{ "type": "Feature", "properties": { "name": "68", "type": "Secondary Highway" }, "geometry": { "type": "LineString", "coordinates": [ [ -98.187075, 50.950421 ], [ -98.227016, 50.941738 ], [ -98.600384, 50.950421 ], [ -98.62817, 50.96084 ], [ -98.649009, 50.979943 ], [ -98.652482, 50.999046 ], [ -98.638589, 51.049407 ], [ -98.655955, 51.082402 ], [ -98.728892, 51.077192 ], [ -98.801829, 51.082402 ], [ -98.879976, 51.0633 ], [ -98.893869, 51.075456 ], [ -98.911235, 51.125817 ], [ -98.935547, 51.12929 ], [ -98.95465, 51.150129 ], [ -98.987645, 51.160549 ], [ -99.02064, 51.153602 ], [ -99.062318, 51.110188 ], [ -99.145675, 51.099768 ], [ -99.201246, 51.04767 ], [ -99.246397, 51.037251 ], [ -99.605873, 51.04767 ], [ -99.729171, 51.059826 ], [ -99.75522, 51.065036 ], [ -99.810791, 51.106714 ], [ -99.855942, 51.12929 ], [ -99.946245, 51.148393 ], [ -100.053914, 51.157076 ] ] } },
{ "type": "Feature", "properties": { "name": null, "type": "Secondary Highway" }, "geometry": { "type": "LineString", "coordinates": [ [ -98.355524, 51.179651 ], [ -97.902273, 51.172705 ], [ -97.721667, 51.217856 ], [ -97.530642, 51.21091 ], [ -97.410817, 51.217856 ], [ -97.323987, 51.231749 ], [ -97.046132, 51.235222 ], [ -97.02703, 51.230013 ], [ -97.01661, 51.202227 ], [ -97.006191, 51.077192 ], [ -97.02703, 50.936528 ], [ -97.020083, 50.825386 ], [ -97.025293, 50.524955 ], [ -97.049605, 50.478067 ], [ -97.060025, 50.32872 ], [ -97.044396, 50.068231 ], [ -97.056552, 50.038709 ], [ -97.126016, 49.965772 ], [ -97.16943, 49.904991 ] ] } },
{ "type": "Feature", "properties": { "name": "1", "type": "Secondary Highway" }, "geometry": { "type": "LineString", "coordinates": [ [ -95.11031780517682, 49.739894699615036 ], [ -95.153244, 49.741751 ] ] } },
{ "type": "Feature", "properties": { "name": "12", "type": "Secondary Highway" }, "geometry": { "type": "LineString", "coordinates": [ [ -95.490144, 49.005435 ], [ -95.530085, 49.024538 ], [ -95.783628, 49.040167 ], [ -95.873931, 49.083582 ], [ -95.97639, 49.090528 ], [ -96.066693, 49.13568 ], [ -96.174362, 49.166938 ], [ -96.37928, 49.260714 ], [ -96.53731, 49.29371 ], [ -96.638033, 49.337125 ], [ -96.693604, 49.382276 ], [ -96.709233, 49.43611 ], [ -96.686657, 49.60977 ], [ -96.651925, 49.701809 ] ] } },
{ "type": "Feature", "properties": { "name": "1", "type": "Secondary Highway" }, "geometry": { "type": "LineString", "coordinates": [ [ -95.227918, 49.746961 ], [ -95.274806, 49.712229 ], [ -95.370319, 49.679234 ], [ -95.432836, 49.644502 ], [ -95.477987, 49.635819 ], [ -95.613442, 49.635819 ], [ -95.702008, 49.651448 ], [ -96.077113, 49.642765 ], [ -96.320236, 49.658395 ], [ -96.438324, 49.653185 ], [ -96.617193, 49.679234 ] ] } },
{ "type": "Feature", "properties": { "name": "11", "type": "Secondary Highway" }, "geometry": { "type": "LineString", "coordinates": [ [ -97.087811, 49.898045 ], [ -96.969722, 50.016133 ], [ -96.837741, 50.115119 ], [ -96.823848, 50.135958 ], [ -96.818638, 50.18111 ], [ -96.808219, 50.200212 ], [ -96.551203, 50.406867 ], [ -96.533837, 50.448545 ], [ -96.528627, 50.611785 ], [ -96.514734, 50.625678 ], [ -96.488685, 50.629151 ], [ -96.410539, 50.611785 ], [ -96.328919, 50.618731 ], [ -96.301133, 50.608312 ], [ -96.250772, 50.56837 ], [ -96.162206, 50.540585 ], [ -96.089269, 50.48154 ], [ -96.026751, 50.453755 ], [ -96.011122, 50.438125 ], [ -96.019805, 50.320037 ], [ -96.033698, 50.295725 ], [ -96.070166, 50.262729 ], [ -96.087532, 50.227998 ], [ -96.089269, 50.201949 ], [ -96.051225, 50.060272 ] ] } },
{ "type": "Feature", "properties": { "name": "16A", "type": "Secondary Highway" }, "geometry": { "type": "LineString", "coordinates": [ [ -100.074753, 49.161729 ], [ -100.057387, 49.024538 ], [ -100.057387, 48.944455767206975 ] ] } },
{ "type": "Feature", "properties": { "name": "16A", "type": "Secondary Highway" }, "geometry": { "type": "LineString", "coordinates": [ [ -99.956665, 49.568092 ], [ -99.967084, 49.548989 ], [ -100.005289, 49.521204 ], [ -100.020919, 49.491682 ], [ -100.027865, 49.432637 ], [ -100.022655, 49.271134 ], [ -100.052177, 49.258978 ], [ -100.06086, 49.246822 ], [ -100.069543, 49.168675 ] ] } },
{ "type": "Feature", "properties": { "name": "3", "type": "Secondary Highway" }, "geometry": { "type": "LineString", "coordinates": [ [ -100.069543, 49.168675 ], [ -100.472433, 49.179094 ], [ -100.505428, 49.192987 ], [ -100.512375, 49.227719 ], [ -100.528004, 49.238139 ], [ -100.573156, 49.238139 ], [ -100.725976, 49.267661 ], [ -100.929158, 49.274607 ], [ -100.976046, 49.265924 ], [ -101.050719, 49.213826 ], [ -101.066348, 49.192987 ], [ -101.066348, 49.163465 ], [ -101.299052, 49.173885 ], [ -101.392828, 49.186041 ] ] } },
{ "type": "Feature", "properties": { "name": "16", "type": "Secondary Highway" }, "geometry": { "type": "LineString", "coordinates": [ [ -101.288633, 50.618731 ], [ -101.234798, 50.594419 ], [ -101.19312, 50.547531 ], [ -101.160125, 50.526692 ], [ -101.118446, 50.521482 ], [ -100.991675, 50.528428 ], [ -100.791967, 50.471121 ], [ -100.597468, 50.450282 ], [ -100.404706, 50.41555 ], [ -100.034811, 50.314827 ], [ -99.967084, 50.290515 ], [ -99.904567, 50.255783 ] ] } },
{ "type": "Feature", "properties": { "name": "1", "type": "Secondary Highway" }, "geometry": { "type": "LineString", "coordinates": [ [ -99.914986, 49.889362 ], [ -100.017445, 49.877205 ], [ -100.090382, 49.878942 ], [ -100.210207, 49.842474 ], [ -100.31614, 49.839 ], [ -100.39776, 49.800795 ], [ -100.507165, 49.779956 ], [ -100.752025, 49.774746 ], [ -100.824962, 49.795586 ], [ -100.962153, 49.877205 ], [ -101.146232, 49.946669 ], [ -101.283423, 50.009187 ], [ -101.368516, 50.035236 ] ] } },
{ "type": "Feature", "properties": { "name": "18", "type": "Secondary Highway" }, "geometry": { "type": "LineString", "coordinates": [ [ -101.392828, 49.186041 ], [ -101.43295677391599, 49.189862578398078 ] ] } },
{ "type": "Feature", "properties": { "name": "16", "type": "Secondary Highway" }, "geometry": { "type": "LineString", "coordinates": [ [ -101.517863, 50.778498 ], [ -101.583133219878789, 50.799337831046302 ] ] } },
{ "type": "Feature", "properties": { "name": "1", "type": "Secondary Highway" }, "geometry": { "type": "LineString", "coordinates": [ [ -101.368516, 50.035236 ], [ -101.410194, 50.038709 ], [ -101.516630874178304, 50.086617011467837 ] ] } },
{ "type": "Feature", "properties": { "name": "280", "type": "Secondary Highway" }, "geometry": { "type": "LineString", "coordinates": [ [ -94.953536, 56.299132 ], [ -94.642685, 56.363386 ], [ -94.62532, 56.375542 ], [ -94.595797, 56.354703 ], [ -94.5437, 56.333864 ], [ -94.508968, 56.328654 ], [ -94.475972, 56.333864 ], [ -94.444714, 56.34602 ], [ -94.418665, 56.368596 ], [ -94.394352, 56.424167 ] ] } },
{ "type": "Feature", "properties": { "name": "290", "type": "Secondary Highway" }, "geometry": { "type": "LineString", "coordinates": [ [ -94.118234, 56.542255 ], [ -94.149493, 56.519679 ], [ -94.199854, 56.457162 ], [ -94.231113, 56.431113 ], [ -94.300576, 56.418957 ], [ -94.394352, 56.424167 ] ] } },
{ "type": "Feature", "properties": { "name": "280", "type": "Secondary Highway" }, "geometry": { "type": "LineString", "coordinates": [ [ -94.394352, 56.424167 ], [ -94.482919, 56.462372 ], [ -94.649632, 56.49363 ], [ -94.785086, 56.505787 ], [ -94.884072, 56.505787 ], [ -94.983058, 56.523153 ], [ -95.130669, 56.524889 ], [ -95.33385, 56.550938 ], [ -95.472778, 56.488421 ], [ -95.509246, 56.455425 ], [ -95.542241, 56.408537 ], [ -95.563081, 56.398118 ], [ -95.735003, 56.354703 ], [ -95.761052, 56.361649 ], [ -95.814887, 56.405064 ], [ -95.865248, 56.408537 ], [ -95.880877, 56.396381 ], [ -95.950341, 56.382488 ], [ -95.995493, 56.349493 ], [ -96.078849, 56.309551 ], [ -96.231669, 56.278293 ], [ -96.29766, 56.25398 ], [ -96.363651, 56.248771 ], [ -96.422695, 56.203619 ], [ -96.45569, 56.18799 ], [ -96.53731, 56.17757 ], [ -96.643242, 56.144575 ], [ -96.757858, 56.163678 ], [ -96.825585, 56.156731 ], [ -96.947146, 56.09595 ], [ -97.084337, 56.068165 ], [ -97.178113, 56.02996 ], [ -97.277099, 56.021277 ], [ -97.539325, 55.941393 ], [ -97.636574, 55.936184 ], [ -97.905747, 55.814622 ] ] } },
{ "type": "Feature", "properties": { "name": "6", "type": "Secondary Highway" }, "geometry": { "type": "LineString", "coordinates": [ [ -98.812249, 54.802187 ], [ -98.864347, 54.769192 ], [ -98.916445, 54.708411 ], [ -99.11268, 54.659787 ] ] } },
{ "type": "Feature", "properties": { "name": "6", "type": "Secondary Highway" }, "geometry": { "type": "LineString", "coordinates": [ [ -97.854824, 55.733164 ], [ -97.931795, 55.69827 ], [ -97.933532, 55.658329 ], [ -97.949161, 55.628806 ], [ -97.997786, 55.566289 ], [ -98.042937, 55.524611 ], [ -98.114138, 55.481196 ], [ -98.270431, 55.406522 ], [ -98.322529, 55.368317 ], [ -98.357261, 55.324902 ], [ -98.38331, 55.231126 ], [ -98.442354, 55.163399 ], [ -98.513555, 55.029681 ], [ -98.543077, 55.007106 ], [ -98.62296, 54.970637 ], [ -98.812249, 54.802187 ] ] } },
{ "type": "Feature", "properties": { "name": "6", "type": "Secondary Highway" }, "geometry": { "type": "LineString", "coordinates": [ [ -99.11268, 54.659787 ], [ -99.079684, 54.560801 ], [ -99.041479, 54.503493 ], [ -99.041479, 54.465288 ], [ -99.048426, 54.446186 ], [ -99.114416, 54.369775 ], [ -99.147412, 54.302048 ], [ -99.163041, 54.227375 ], [ -99.156095, 54.114496 ], [ -99.171724, 54.039822 ], [ -99.218612, 53.925207 ], [ -99.27071, 53.838378 ], [ -99.307178, 53.748075 ], [ -99.331491, 53.659508 ], [ -99.34712, 53.53621 ], [ -99.345383, 53.293087 ], [ -99.334964, 53.268775 ], [ -99.286339, 53.207994 ], [ -99.249871, 53.096852 ], [ -99.208192, 53.029124 ], [ -99.164778, 52.990919 ], [ -99.164778, 52.96487 ], [ -99.185617, 52.924929 ], [ -99.187353, 52.905826 ] ] } },
{ "type": "Feature", "properties": { "name": "6", "type": "Secondary Highway" }, "geometry": { "type": "LineString", "coordinates": [ [ -99.187353, 52.905826 ], [ -99.109206, 52.865885 ], [ -99.043216, 52.858938 ], [ -99.024113, 52.846782 ], [ -98.966806, 52.74606 ], [ -98.94944, 52.65402 ], [ -98.899079, 52.588029 ], [ -98.888659, 52.528985 ], [ -98.893869, 52.442156 ], [ -98.912971, 52.341433 ], [ -98.928601, 52.303228 ], [ -98.930337, 52.25113 ], [ -98.916445, 52.226818 ], [ -98.866083, 52.178193 ], [ -98.831351, 52.115676 ], [ -98.824405, 51.957646 ], [ -98.803566, 51.902075 ], [ -98.768834, 51.867343 ], [ -98.741048, 51.808299 ], [ -98.732365, 51.770093 ], [ -98.751468, 51.60859 ], [ -98.741048, 51.592961 ], [ -98.682004, 51.575595 ], [ -98.649009, 51.549546 ], [ -98.548286, 51.419301 ], [ -98.492715, 51.36894 ], [ -98.440618, 51.290793 ], [ -98.358998, 51.217856 ] ] } },
{ "type": "Feature", "properties": { "name": "391", "type": "Secondary Highway" }, "geometry": { "type": "LineString", "coordinates": [ [ -97.905747, 55.814622 ], [ -98.039464, 55.864983 ], [ -98.213124, 55.887559 ], [ -98.341632, 55.924027 ], [ -98.397203, 55.927501 ], [ -98.490979, 55.908398 ], [ -98.586492, 55.941393 ], [ -98.63338, 55.936184 ], [ -98.725419, 55.894505 ], [ -98.765361, 55.889296 ], [ -99.123099, 55.889296 ], [ -99.394008, 55.8563 ], [ -99.498204, 55.828515 ], [ -99.618029, 55.831988 ], [ -99.703122, 55.868456 ], [ -99.812527, 55.95355 ], [ -99.852469, 55.976125 ], [ -99.895884, 56.047326 ], [ -99.97924, 56.085531 ], [ -100.003553, 56.113316 ], [ -100.012236, 56.149785 ], [ -100.012236, 56.236615 ], [ -100.031338, 56.328654 ], [ -100.031338, 56.418957 ], [ -100.000079, 56.49884 ], [ -99.947982, 56.564831 ], [ -99.939299, 56.601299 ], [ -99.951455, 56.6725 ], [ -99.98966, 56.712441 ], [ -100.045231, 56.731544 ], [ -100.257095, 56.769749 ], [ -100.567946, 56.780169 ], [ -100.628727, 56.811427 ], [ -100.798913, 56.858315 ], [ -100.962153, 56.861789 ], [ -101.097607, 56.90173 ], [ -101.194856, 56.908677 ], [ -101.304262, 56.98335 ], [ -101.321628, 57.014609 ], [ -101.328574, 57.063233 ], [ -101.35115, 57.082336 ], [ -101.60122, 57.07539 ], [ -101.771406, 57.106648 ], [ -101.853026, 57.099702 ], [ -101.9989, 57.066707 ] ] } },
{ "type": "Feature", "properties": { "name": "10", "type": "Secondary Highway" }, "geometry": { "type": "LineString", "coordinates": [ [ -101.846079, 54.758773 ], [ -101.814821, 54.757036 ], [ -101.738411, 54.708411 ], [ -101.632478, 54.675416 ], [ -101.549122, 54.632001 ], [ -101.521336, 54.632001 ], [ -101.457082, 54.659787 ], [ -101.411931, 54.649367 ], [ -101.387618, 54.602479 ], [ -101.354623, 54.435766 ] ] } },
{ "type": "Feature", "properties": { "name": "10", "type": "Secondary Highway" }, "geometry": { "type": "LineString", "coordinates": [ [ -101.363306, 54.435766 ], [ -101.366779, 54.387141 ], [ -101.385882, 54.322887 ], [ -101.358096, 54.177013 ], [ -101.342467, 54.131862 ], [ -101.300789, 54.071081 ], [ -101.250427, 53.966886 ], [ -101.255637, 53.937363 ], [ -101.309472, 53.906105 ], [ -101.318155, 53.876583 ], [ -101.297316, 53.841851 ], [ -101.255637, 53.824485 ] ] } },
{ "type": "Feature", "properties": { "name": "60", "type": "Secondary Highway" }, "geometry": { "type": "LineString", "coordinates": [ [ -101.255637, 53.824485 ], [ -101.323364, 53.801909 ], [ -101.404984, 53.78628 ], [ -101.490078, 53.737655 ], [ -101.526546, 53.741128 ], [ -101.552595, 53.753284 ], [ -101.623795, 53.756758 ], [ -101.700205, 53.744601 ] ] } },
{ "type": "Feature", "properties": { "name": "106", "type": "Secondary Highway" }, "geometry": { "type": "LineString", "coordinates": [ [ -101.955907177796632, 54.794441432373247 ], [ -101.899914, 54.762246 ], [ -101.846079, 54.758773 ] ] } },
{ "type": "Feature", "properties": { "name": "55", "type": "Secondary Highway" }, "geometry": { "type": "LineString", "coordinates": [ [ -101.700205, 53.744601 ], [ -101.760986, 53.741128 ], [ -101.813084, 53.727235 ], [ -101.853935196101588, 53.701584427072191 ] ] } },
{ "type": "Feature", "properties": { "name": "10", "type": "Secondary Highway" }, "geometry": { "type": "LineString", "coordinates": [ [ -101.255637, 53.824485 ], [ -101.226115, 53.758494 ], [ -101.224379, 53.728972 ], [ -101.233062, 53.69945 ], [ -101.271267, 53.668191 ], [ -101.408458, 53.609147 ], [ -101.424087, 53.584835 ], [ -101.42235, 53.54663 ], [ -101.403248, 53.520581 ], [ -101.378935, 53.508425 ], [ -101.371989, 53.487585 ], [ -101.309472, 53.402492 ], [ -101.285159, 53.393809 ], [ -101.094134, 53.374707 ], [ -101.048983, 53.343448 ], [ -101.01946, 53.300033 ] ] } },
{ "type": "Feature", "properties": { "name": "60", "type": "Secondary Highway" }, "geometry": { "type": "LineString", "coordinates": [ [ -99.187353, 52.905826 ], [ -99.354066, 52.923192 ], [ -99.562458, 52.905826 ], [ -99.675336, 52.924929 ], [ -99.784742, 52.977027 ], [ -99.98966, 52.989183 ], [ -100.019182, 53.003076 ], [ -100.059124, 53.04649 ], [ -100.085173, 53.06212 ], [ -100.222364, 53.091642 ], [ -100.385603, 53.098588 ], [ -100.401233, 53.107271 ], [ -100.430755, 53.147213 ], [ -100.47417, 53.171525 ], [ -100.781547, 53.237516 ], [ -100.885743, 53.320872 ], [ -101.012514, 53.326082 ], [ -101.042036, 53.336502 ] ] } },
{ "type": "Feature", "properties": { "name": null, "type": "Secondary Highway" }, "geometry": { "type": "LineString", "coordinates": [ [ -101.01946, 53.300033 ], [ -101.076768, 53.232306 ], [ -101.130602, 53.084696 ], [ -101.130602, 53.06212 ], [ -101.12192, 53.048227 ], [ -101.054192, 53.011759 ], [ -101.017724, 53.001339 ], [ -101.010777, 52.98571 ], [ -101.0403, 52.930139 ], [ -101.052456, 52.775582 ], [ -101.114973, 52.72522 ] ] } },
{ "type": "Feature", "properties": { "name": "77", "type": "Secondary Highway" }, "geometry": { "type": "LineString", "coordinates": [ [ -101.77228423938385, 52.826512485199245 ], [ -101.335521, 52.834626 ], [ -101.260847, 52.81205 ], [ -101.113237, 52.733903 ] ] } },
{ "type": "Feature", "properties": { "name": "10", "type": "Secondary Highway" }, "geometry": { "type": "LineString", "coordinates": [ [ -101.114973, 52.732167 ], [ -101.092397, 52.655757 ], [ -101.090661, 52.614078 ], [ -101.109763, 52.450839 ], [ -101.156651, 52.358799 ], [ -101.207013, 52.325804 ], [ -101.220905, 52.277179 ], [ -101.252164, 52.232028 ], [ -101.260847, 52.192086 ], [ -101.25911, 52.119149 ] ] } },
{ "type": "Feature", "properties": { "name": "5", "type": "Secondary Highway" }, "geometry": { "type": "LineString", "coordinates": [ [ -101.642840000069043, 51.439229023805787 ], [ -101.618586, 51.421038 ], [ -101.614372, 51.408397 ] ] } },
{ "type": "Feature", "properties": { "name": null, "type": "Secondary Highway" }, "geometry": { "type": "LineString", "coordinates": [ [ -101.611639, 51.403672 ], [ -101.549122, 51.407145 ], [ -101.5196, 51.398462 ], [ -101.497024, 51.367204 ], [ -101.488341, 51.308159 ], [ -101.420614, 51.308159 ], [ -101.394565, 51.28732 ] ] } },
{ "type": "Feature", "properties": { "name": "10", "type": "Secondary Highway" }, "geometry": { "type": "LineString", "coordinates": [ [ -101.571697, 51.219593 ], [ -101.622213861034524, 51.218173983377127 ] ] } },
{ "type": "Feature", "properties": { "name": "10", "type": "Secondary Highway" }, "geometry": { "type": "LineString", "coordinates": [ [ -101.25911, 52.119149 ], [ -101.11671, 52.100046 ], [ -100.720766, 52.110466 ], [ -100.680825, 52.09831 ], [ -100.663459, 52.070524 ], [ -100.646093, 52.002797 ], [ -100.654776, 51.964592 ], [ -100.6322, 51.903811 ], [ -100.573156, 51.830874 ], [ -100.510638, 51.717996 ], [ -100.484589, 51.646795 ], [ -100.363028, 51.469663 ], [ -100.347398, 51.407145 ], [ -100.368237, 51.344628 ], [ -100.373447, 51.280374 ], [ -100.349135, 51.242169 ], [ -100.291827, 51.198754 ], [ -100.279671, 51.157076 ] ] } },
{ "type": "Feature", "properties": { "name": "83", "type": "Secondary Highway" }, "geometry": { "type": "LineString", "coordinates": [ [ -101.328574, 51.290793 ], [ -101.328574, 51.315106 ], [ -101.359833, 51.407145 ], [ -101.370253, 51.424511 ], [ -101.403248, 51.440141 ], [ -101.43277, 51.471399 ], [ -101.425824, 51.497448 ], [ -101.443189, 51.549546 ], [ -101.540439, 51.643322 ], [ -101.557805, 51.671108 ], [ -101.545649, 51.76662 ], [ -101.561278, 51.933333 ], [ -101.543912, 51.981958 ], [ -101.538702, 52.027109 ], [ -101.337257, 52.028846 ], [ -101.314681, 52.046212 ], [ -101.299052, 52.079207 ], [ -101.257374, 52.124359 ] ] } },
{ "type": "Feature", "properties": { "name": null, "type": "Secondary Highway" }, "geometry": { "type": "LineString", "coordinates": [ [ -101.9989, 57.066707 ], [ -102.026685, 57.05976 ] ] } },
{ "type": "Feature", "properties": { "name": null, "type": "Secondary Highway" }, "geometry": { "type": "LineString", "coordinates": [ [ -101.328574, 51.290793 ], [ -101.394565, 51.28732 ] ] } },
{ "type": "Feature", "properties": { "name": null, "type": "Secondary Highway" }, "geometry": { "type": "LineString", "coordinates": [ [ -100.279671, 51.157076 ], [ -100.053914, 51.157076 ] ] } },
{ "type": "Feature", "properties": { "name": "5", "type": "Secondary Highway" }, "geometry": { "type": "LineString", "coordinates": [ [ -100.279671, 51.157076 ], [ -100.309193, 51.162285 ], [ -100.528004, 51.143183 ], [ -100.587048, 51.146656 ], [ -100.762444, 51.186598 ], [ -100.989938, 51.202227 ], [ -101.163598, 51.203964 ], [ -101.262584, 51.230013 ], [ -101.342277, 51.234186 ] ] } },
{ "type": "Feature", "properties": { "name": null, "type": "Secondary Highway" }, "geometry": { "type": "LineString", "coordinates": [ [ -98.358998, 51.217856 ], [ -98.350315, 51.191808 ], [ -98.282588, 51.089348 ], [ -98.247856, 51.05288 ], [ -98.237436, 51.011202 ], [ -98.207914, 50.983416 ], [ -98.187075, 50.950421 ] ] } },
{ "type": "Feature", "properties": { "name": "83", "type": "Secondary Highway" }, "geometry": { "type": "LineString", "coordinates": [ [ -101.27995, 50.766342 ], [ -101.293842, 50.801074 ], [ -101.285159, 50.940001 ], [ -101.332047, 50.986889 ], [ -101.347677, 51.065036 ], [ -101.352887, 51.203964 ], [ -101.328574, 51.290793 ] ] } },
{ "type": "Feature", "properties": { "name": null, "type": "Secondary Highway" }, "geometry": { "type": "LineString", "coordinates": [ [ -101.273003, 50.757659 ], [ -101.27995, 50.766342 ] ] } },
{ "type": "Feature", "properties": { "name": "16", "type": "Secondary Highway" }, "geometry": { "type": "LineString", "coordinates": [ [ -101.273003, 50.757659 ], [ -101.517863, 50.778498 ] ] } },
{ "type": "Feature", "properties": { "name": "16", "type": "Secondary Highway" }, "geometry": { "type": "LineString", "coordinates": [ [ -101.273003, 50.757659 ], [ -101.286896, 50.648253 ] ] } },
{ "type": "Feature", "properties": { "name": "45", "type": "Secondary Highway" }, "geometry": { "type": "LineString", "coordinates": [ [ -99.892411, 50.49717 ], [ -99.961874, 50.523219 ], [ -100.314403, 50.521482 ], [ -100.456804, 50.530165 ], [ -100.564473, 50.56316 ], [ -100.746815, 50.643044 ], [ -100.878796, 50.719454 ], [ -101.01946, 50.729873 ], [ -101.163598, 50.759395 ], [ -101.27995, 50.766342 ] ] } },
{ "type": "Feature", "properties": { "name": null, "type": "Secondary Highway" }, "geometry": { "type": "LineString", "coordinates": [ [ -99.892411, 50.49717 ], [ -99.899357, 50.262729 ] ] } },
{ "type": "Feature", "properties": { "name": "41", "type": "Secondary Highway" }, "geometry": { "type": "LineString", "coordinates": [ [ -101.368516, 50.035236 ], [ -101.391092, 50.354769 ], [ -101.335521, 50.453755 ], [ -101.286896, 50.465911 ], [ -101.27995, 50.483277 ], [ -101.286896, 50.648253 ] ] } },
{ "type": "Feature", "properties": { "name": "16", "type": "Secondary Highway" }, "geometry": { "type": "LineString", "coordinates": [ [ -98.477086, 49.984874 ], [ -98.466667, 50.040445 ], [ -98.556969, 50.129012 ], [ -98.970279, 50.217578 ], [ -99.143938, 50.231471 ], [ -99.293286, 50.219315 ], [ -99.614555, 50.227998 ], [ -99.909777, 50.248837 ] ] } },
{ "type": "Feature", "properties": { "name": "1", "type": "Secondary Highway" }, "geometry": { "type": "LineString", "coordinates": [ [ -97.34309, 49.904991 ], [ -97.17985, 49.913674 ] ] } },
{ "type": "Feature", "properties": { "name": null, "type": "Secondary Highway" }, "geometry": { "type": "LineString", "coordinates": [ [ -98.187075, 50.950421 ], [ -98.178392, 50.952157 ], [ -98.169709, 50.941738 ], [ -98.119348, 50.861855 ], [ -98.055094, 50.80281 ], [ -98.041201, 50.748976 ], [ -98.037728, 50.622205 ], [ -98.018625, 50.587473 ], [ -98.004732, 50.49717 ], [ -97.763346, 50.259256 ], [ -97.528906, 50.132485 ], [ -97.400398, 50.047392 ], [ -97.330934, 49.976191 ], [ -97.311831, 49.929303 ], [ -97.311831, 49.904991 ] ] } },
{ "type": "Feature", "properties": { "name": null, "type": "Secondary Highway" }, "geometry": { "type": "LineString", "coordinates": [ [ -99.895884, 50.274886 ], [ -99.930616, 50.207158 ], [ -99.91846, 49.911937 ] ] } },
{ "type": "Feature", "properties": { "name": "1", "type": "Secondary Highway" }, "geometry": { "type": "LineString", "coordinates": [ [ -97.17985, 49.913674 ], [ -96.985351, 49.865049 ] ] } },
{ "type": "Feature", "properties": { "name": "1", "type": "Secondary Highway" }, "geometry": { "type": "LineString", "coordinates": [ [ -97.17985, 49.913674 ], [ -97.245841, 49.873732 ], [ -97.270153, 49.84421 ] ] } },
{ "type": "Feature", "properties": { "name": "1", "type": "Secondary Highway" }, "geometry": { "type": "LineString", "coordinates": [ [ -95.153244, 49.741751 ], [ -95.220971, 49.741751 ] ] } },
{ "type": "Feature", "properties": { "name": "1", "type": "Secondary Highway" }, "geometry": { "type": "LineString", "coordinates": [ [ -96.985351, 49.865049 ], [ -96.641506, 49.701809 ], [ -96.617193, 49.679234 ] ] } },
{ "type": "Feature", "properties": { "name": "13", "type": "Secondary Highway" }, "geometry": { "type": "LineString", "coordinates": [ [ -101.469382742613178, 49.580248 ], [ -101.418877, 49.580248 ] ] } },
{ "type": "Feature", "properties": { "name": "16A", "type": "Secondary Highway" }, "geometry": { "type": "LineString", "coordinates": [ [ -99.91846, 49.911937 ], [ -99.90804, 49.885888 ], [ -99.909777, 49.858103 ], [ -99.956665, 49.568092 ] ] } },
{ "type": "Feature", "properties": { "name": "2", "type": "Secondary Highway" }, "geometry": { "type": "LineString", "coordinates": [ [ -101.418877, 49.580248 ], [ -101.245218, 49.583721 ], [ -101.099344, 49.557672 ], [ -100.986465, 49.555935 ], [ -100.845801, 49.580248 ], [ -100.593995, 49.585458 ], [ -100.399496, 49.627136 ], [ -100.187632, 49.639292 ], [ -99.956665, 49.568092 ] ] } },
{ "type": "Feature", "properties": { "name": "3", "type": "Secondary Highway" }, "geometry": { "type": "LineString", "coordinates": [ [ -97.270153, 49.84421 ], [ -97.355246, 49.75738 ], [ -97.700828, 49.512521 ], [ -97.754663, 49.495155 ], [ -97.987366, 49.502101 ], [ -98.002996, 49.491682 ], [ -98.011679, 49.267661 ], [ -97.994313, 49.208617 ], [ -98.009942, 49.198197 ], [ -98.23049, 49.20167 ], [ -98.447564, 49.192987 ], [ -98.477086, 49.19646 ], [ -98.513555, 49.225983 ], [ -98.537867, 49.234666 ], [ -98.635116, 49.239875 ], [ -98.718473, 49.227719 ], [ -98.855664, 49.224246 ], [ -98.912971, 49.187777 ], [ -98.94423, 49.149572 ], [ -98.94423, 49.106158 ], [ -98.968542, 49.094001 ], [ -98.994591, 49.092265 ], [ -99.649287, 49.094001 ], [ -99.671863, 49.163465 ], [ -99.743063, 49.182568 ], [ -100.069543, 49.168675 ] ] } },
{ "type": "Feature", "properties": { "name": null, "type": "Major Highway" }, "geometry": { "type": "LineString", "coordinates": [ [ -97.26668, 49.000225 ], [ -97.26147, 49.015855 ] ] } },
{ "type": "Feature", "properties": { "name": "5", "type": "Secondary Highway" }, "geometry": { "type": "LineString", "coordinates": [ [ -101.342277, 51.234186 ], [ -101.488341, 51.230013 ], [ -101.571697, 51.219593 ] ] } },
{ "type": "Feature", "properties": { "name": "8", "type": "Secondary Highway" }, "geometry": { "type": "LineString", "coordinates": [ [ -101.614372, 51.408397 ], [ -101.609903, 51.344628 ], [ -101.5908, 51.313369 ], [ -101.587327, 51.266481 ], [ -101.571697, 51.224803 ] ] } },
{ "type": "Feature", "properties": { "name": "391", "type": "Secondary Highway" }, "geometry": { "type": "LineString", "coordinates": [ [ -97.905747, 55.814622 ], [ -97.801551, 55.757314 ], [ -97.854824, 55.733164 ] ] } },
{ "type": "Feature", "properties": { "name": "44", "type": "Secondary Highway" }, "geometry": { "type": "LineString", "coordinates": [ [ -96.051225, 50.060272 ], [ -96.019805, 50.003977 ], [ -95.952078, 49.948406 ], [ -95.74716, 49.917147 ], [ -95.530085, 49.847683 ], [ -95.460621, 49.835527 ], [ -95.356426, 49.833791 ], [ -95.250494, 49.816425 ], [ -95.219235, 49.795586 ], [ -95.234864, 49.740015 ] ] } },
{ "type": "Feature", "properties": { "name": "313", "type": "Secondary Highway" }, "geometry": { "type": "LineString", "coordinates": [ [ -95.343125501234937, 48.950897309964667 ], [ -95.370319, 48.96723 ], [ -95.392894, 49.000225 ], [ -95.429363, 49.010645 ], [ -95.490144, 49.012381 ] ] } },
{ "type": "Feature", "properties": { "name": "83", "type": "Secondary Highway" }, "geometry": { "type": "LineString", "coordinates": [ [ -100.9597, 49.873153 ], [ -100.964185, 49.282607 ], [ -100.986611, 49.276627 ], [ -101.019502, 49.237756 ], [ -101.055383, 49.225795 ], [ -101.049403, 49.032934 ], [ -101.026977, 49.025458 ], [ -101.026977, 49.000042 ] ] } },
{ "type": "Feature", "properties": { "name": "59", "type": "Secondary Highway" }, "geometry": { "type": "LineString", "coordinates": [ [ -96.985851, 49.692252 ], [ -96.979871, 49.671321 ], [ -96.979871, 49.367825 ], [ -96.936515, 49.300548 ], [ -96.894653, 49.266162 ], [ -96.858772, 49.266162 ], [ -96.827376, 49.243736 ], [ -96.827376, 49.173469 ], [ -96.809435, 49.158518 ], [ -96.80794, 49.003033 ], [ -96.80196, 49.000042 ] ] } },
{ "type": "Feature", "properties": { "name": "3", "type": "Secondary Highway" }, "geometry": { "type": "LineString", "coordinates": [ [ -97.316258, 49.775975 ], [ -97.151802, 49.841757 ] ] } },
{ "type": "Feature", "properties": { "name": "59", "type": "Secondary Highway" }, "geometry": { "type": "LineString", "coordinates": [ [ -97.045653, 49.814846 ], [ -97.041168, 49.7984 ], [ -97.024723, 49.781955 ], [ -97.024723, 49.753549 ], [ -96.985851, 49.692252 ] ] } },
{ "type": "Feature", "properties": { "name": "59", "type": "Secondary Highway" }, "geometry": { "type": "LineString", "coordinates": [ [ -96.79897, 48.948908051500794 ], [ -96.80196, 49.000042 ] ] } },
{ "type": "Feature", "properties": { "name": "75", "type": "Secondary Highway" }, "geometry": { "type": "LineString", "coordinates": [ [ -97.136910784357568, 48.948446290944538 ], [ -97.187683, 48.964161 ], [ -97.204129, 48.976122 ], [ -97.204129, 48.997052 ], [ -97.213099, 49.000042 ] ] } },
{ "type": "Feature", "properties": { "name": "106", "type": "Secondary Highway" }, "geometry": { "type": "LineString", "coordinates": [ [ -101.903078, 54.751508 ], [ -101.879157, 54.753003 ], [ -101.876167, 54.761974 ] ] } },
{ "type": "Feature", "properties": { "name": "83", "type": "Secondary Highway" }, "geometry": { "type": "LineString", "coordinates": [ [ -101.016512, 48.943145223721196 ], [ -101.016512, 48.998547 ] ] } }
]
}
