{
"type": "FeatureCollection",
"name": "manitoba-boundary",
"crs": { "type": "name", "properties": { "name": "urn:ogc:def:crs:OGC:1.3:CRS84" } },
"features": [
{ "type": "Feature", "properties": { "name": "Manitoba" }, "geometry": { "type": "Polygon", "coordinates": [ [ [ -95.161887, 49.001145 ], [ -101.36434, 48.99267 ], [ -102.001055, 55.81649 ], [ -102.001598, 60.000059 ], [ -94.803131, 60.000067 ], [ -94.786936, 59.991319 ], [ -94.82136, 59.948106 ], [ -94.800608, 59.943549 ], [ -94.81428, 59.923041 ], [ -94.779408, 59.83869 ], [ -94.793121, 59.820014 ], [ -94.773305, 59.789618 ], [ -94.807444, 59.717597 ], [ -94.798492, 59.659369 ], [ -94.821889, 59.650336 ], [ -94.819447, 59.638658 ], [ -94.803375, 59.59809 ], [ -94.759023, 59.566759 ], [ -94.781239, 59.562201 ], [ -94.793121, 59.525824 ], [ -94.757151, 59.501776 ], [ -94.757924, 59.467231 ], [ -94.724233, 59.443834 ], [ -94.73469, 59.429511 ], [ -94.71642, 59.375352 ], [ -94.738515, 59.347724 ], [ -94.660146, 59.358751 ], [ -94.772206, 59.298041 ], [ -94.766469, 59.28559 ], [ -94.786936, 59.265082 ], [ -94.774281, 59.252631 ], [ -94.786936, 59.23786 ], [ -94.779449, 59.203681 ], [ -94.793121, 59.189399 ], [ -94.773305, 59.168891 ], [ -94.793121, 59.093817 ], [ -94.842437, 59.081122 ], [ -94.967275, 59.085924 ], [ -94.999176, 59.052802 ], [ -94.804026, 59.063056 ], [ -94.807444, 59.018134 ], [ -94.723704, 59.004218 ], [ -94.694, 58.983466 ], [ -94.683258, 58.950385 ], [ -94.694081, 58.916938 ], [ -94.735097, 58.877794 ], [ -94.745961, 58.833116 ], [ -94.650014, 58.884996 ], [ -94.608144, 58.881537 ], [ -94.48526, 58.820054 ], [ -94.436879, 58.723822 ], [ -94.362457, 58.71894 ], [ -94.293528, 58.744371 ], [ -94.300282, 58.757392 ], [ -94.265533, 58.792182 ], [ -94.204091, 58.806464 ], [ -94.232045, 58.785346 ], [ -94.238271, 58.734117 ], [ -94.207997, 58.683783 ], [ -94.263783, 58.649237 ], [ -94.308502, 58.575141 ], [ -94.287709, 58.520819 ], [ -94.300649, 58.481269 ], [ -94.28661, 58.43651 ], [ -94.334381, 58.381415 ], [ -94.330312, 58.3369 ], [ -94.361724, 58.223009 ], [ -94.232045, 58.401109 ], [ -94.246734, 58.590806 ], [ -94.163157, 58.682929 ], [ -94.166127, 58.724311 ], [ -94.142893, 58.736802 ], [ -94.177398, 58.77912 ], [ -93.881947, 58.757392 ], [ -93.717437, 58.792182 ], [ -93.555776, 58.763251 ], [ -93.496002, 58.773505 ], [ -93.473459, 58.755235 ], [ -93.464711, 58.717515 ], [ -93.409088, 58.705064 ], [ -93.326487, 58.759955 ], [ -93.211252, 58.766547 ], [ -93.155751, 58.744371 ], [ -93.131825, 58.672349 ], [ -93.140736, 58.639757 ], [ -93.123443, 58.512885 ], [ -93.050771, 58.422349 ], [ -93.032582, 58.367011 ], [ -92.984039, 58.313056 ], [ -92.937245, 58.223009 ], [ -92.861684, 58.17182 ], [ -92.866078, 58.145941 ], [ -92.835072, 58.090806 ], [ -92.807769, 58.075751 ], [ -92.805735, 57.997667 ], [ -92.756988, 57.865912 ], [ -92.785797, 57.839423 ], [ -92.73058, 57.825751 ], [ -92.669097, 57.716498 ], [ -92.615956, 57.671251 ], [ -92.559234, 57.586127 ], [ -92.559234, 57.544542 ], [ -92.507721, 57.520982 ], [ -92.456858, 57.448961 ], [ -92.423573, 57.354438 ], [ -92.439524, 57.253282 ], [ -92.597157, 57.048326 ], [ -92.704905, 56.95539 ], [ -92.881988, 56.914537 ], [ -92.676584, 56.941881 ], [ -92.490956, 57.038072 ], [ -92.242421, 57.074693 ], [ -92.218129, 57.062812 ], [ -92.340199, 56.982856 ], [ -92.42398, 56.96544 ], [ -92.47053, 56.935045 ], [ -92.337392, 56.95954 ], [ -92.2235, 57.02147 ], [ -91.961659, 57.060248 ], [ -91.766591, 57.114691 ], [ -91.031117, 57.264635 ], [ -90.853668, 57.261094 ], [ -90.689117, 57.229926 ], [ -90.58552, 57.229926 ], [ -90.515207, 57.201646 ], [ -90.409291, 57.187486 ], [ -90.380605, 57.154608 ], [ -90.072255, 57.060858 ], [ -89.962961, 57.003974 ], [ -89.482533, 56.921983 ], [ -89.393788, 56.928168 ], [ -89.188344, 56.872992 ], [ -89.107289, 56.86994 ], [ -89.036244, 56.842515 ], [ -88.947, 56.853217 ], [ -89.980523, 56.21507 ], [ -91.378396, 55.315978 ], [ -92.600156, 54.479647 ], [ -93.620171, 53.746901 ], [ -95.153773, 52.82135 ], [ -95.161887, 49.001145 ] ] ] } }
]
}
